Name,Phone,Website,Area,Address,City,Pincode,India,Image,Category,About
Schoolpage Tutorials                  ,N/A,N/A,Adipur,Ahmedabad 382345,Ahmedabad,India,,"Chemistry, English, Mathematics, Physics, IELTS, Spoken English, TOEFL, French, German, Hindi, Spanish","
	School Page is the outcome of a long quest to combine the latest in pedagogy, through its unique e-Tutoring (STS) methodology, with the best in technology, which makes it available to students from all over the world.While there are large numbers of great teachers available throughout the world, great teaching and great tutoring are very different in many ways and require very different approaches. There are also many differences between classroom teaching and off-school tutoring methodologies. With this in mind, the SchoolPage team worked with other global academics to create the unique SchoolPage e-Tutoring System (the STS), which is based on Richard E. Mayer’s ‘Cognitive Theory of Multimedia Learning’. The STS is a highly structured academic system. Through the use of a 9-stage lesson organizational structure, STS is used in every SchoolPage session ensuring better engagement, superior retention and rapid results. STS includes the use of cognitive tools such as Mind Mapping, self-diagnosis tools such as Comfort Boxes, and Learning Outcomes that are highly student centric.
	    ",
Infobit Technologies                  ,N/A,N/A,Ashram Road,"26/a, 1st Floor, Ajanta Comm. Centre,
Above Oshval Restaurant,
Opp. Kalupur Comm. Bank,
Income Tax Crossroad, Ashram Road",Ahmedabad,India,,Android Training,"
	Infobit Technologies is a leader in the high end latest technologies IT education industry and ITES. Established in the year 1999, Infobit has providing Training on major global software vendors including Microsoft, Sun Microsystems, Oracle, Cisco. many others to deliver a comprehensive offering of courses. Information Technology is fast becoming the nerve center of any organization and from a global perspective, India has enormous strengths in terms of its skilled workforce, robust education system and responsive markets. As part of the globalization process, companies the world over are integrating themselves with the world economy; they are increasingly using the latest technologies to improve quality, enhance employee productivity as well as increase customer satisfaction.",
Rnt Classes                  ,N/A,N/A,Ahmedabad University,"C-103, Belveder, Godrej Garden City, Jagatpur, Ahmedabad, India, 382470",Ahmedabad,India,,"Chemistry, Mathematics, Physics, AIEEE, CET, IIT JEE Mains","
	The institute RNT classes has established keeping the view of providing high quality education & training to clear the concept in the subjects to crash/top the prestigious competitive exams of india & abroad and to get rank in 12th exam or class room exams. Keeping the vision, the institute has been started by er. Madhav kishore (b.tech-mechanical engineering) Madhav kishore has qualified AIEEE-all india engineering entrance examination, Qualified GATE conducted by IITs for m.tech program Madhav kishore is having rich experience of more than 3 years of tutoring student of iit jee & state boards. The basic strategy that he has followed to teach the students are: - systematic contents - fixed program - daily practice set (dps) - key notes - regular exams - doubt clearing session - quick review of topics The institute has just been started, till date Er. Madhav kishore was teaching students in different coaching centres in bangalore, delhi, at home. Now he has set to launched his own coaching centre in ahmedabad.",
Shine Academy                  ,N/A,N/A,Akhbarnagar,"A/63, Bhaktinagar Society, Nr. Nakshatra Mall, I.O.C.Road, Chandkheda,",Ahmedabad,India,,"Business English, Corporate Communication, Effective Communication, IELTS, Public Speaking, Spoken English, TOEFL, GRE, PTE, SAT","
	We have been educating students for last 16 years in the field of IELTS, TOEFL, Spoken English, PTE and GRE. Even we provide assistance and consultation for Student Visa, P.R. and Tourist visa.",
Irise Learning & Performance Enhancers                  ,N/A,N/A,Chandkheda,"IRise Learning & Performance Enhancers
E2 - 205 (2nd Floor), Aaron Elegance,
Above Indian Bank,
New CG Road,
Chandkheda",Ahmedabad,India,,"Corporate Communication, IELTS, Public Speaking, Spoken English, TOEFL","IRise Learning & Performance Enhancers
E2 - 205 (2nd Floor), Aaron Elegance,
Above Indian Bank,
New CG Road,
Chandkheda",
Wing Chun Kung Fu Academy                  ,N/A,N/A,Anand Nagar,"C/202, Popular Paradise, Sarkhej Gandhinagar Highway, Ahmedabad - 380055, Near Gota Cross Road, Behind Vishwas City 5",Ahmedabad,India,,"Boxing, Karate, Kung Fu","
	Wing Chun is a Chinese Kung Fu style developed 300 years ago by a lady warrior monk - to defeat bigger, stronger opponents No fancy move but a graceful fighting art Simple & effective - can be used by males and females of all ages and sizes Emphasizes superiority of technique & skill rather than brute strength Surprisingly simple & easy to learn in a very short time Minimum energy spent for maximum output Simultaneous attack & defence Practical real life situation training Building natural reflection no brutal force of body conditioning require No high kicks and no flying kicks Practical Kicks which can be applicable to fight and can be practice by all age.",
Biology Institute                  ,N/A,N/A,Maninagar,"Maninagar East, Ahmedabad, 380008",Ahmedabad,India,,Biology,"
	Biology Institute as an institute is located in Ahmedabad. We cater in biology education for school level and higher education. We provide not only theoretical education but also the practical knowledge to the students.",
Pranshi Career Academy                  ,N/A,N/A,Ghatlodia,"144, ARATI SOCIETY, NR. SWAMINARAYAN TEMPLE, K  K NAGAR ROAD, GHATLODIA, AHMEDABAD - 380061",Ahmedabad,India,,"IBPS, Insurance Exams, Police Department Exam, Railways Exams, SSC Exams","
	Pranshi Career Academy has emerged as one of the most reputed competitive exam training institute. Banking sector in India has always been one of the most preferred destinations for employment. In this decade, this sector has emerged as a sunrise sector in the Indian economy. The Banking Industry is recruiting in a big way. We provide an interactive and collaborative educational environment that strengthens learning, provides credentialing opportunities, and contributes to educational and professional grow.",
Uni Education Services                  ,N/A,N/A,Vastrapur,"C2-Sutirth Apartment Basement, Opp. Sanjeevani Hospital, Vastrapur Lake, Vastrapur, Ahmedabad, 380015",Ahmedabad,India,,"Latin, Spanish","U'n'I Education Services is promised to provide Spanish language services to corporate, schools, language institutions and direct students offering set of services i.e. corporate training in Spanish language, interpretation and translation services, specially designed courses for schools to learn Spanish and 3 different courses for learning Spanish to direct students.",
Brain Academy                  ,N/A,N/A,Prahlad Nagar,"F-2, Sarjan-2, Above TVS Showroom, Opposite To Madhur Hall, Anandnagar Cross Road, Satellite, Ahmedabad",Ahmedabad,India,,Arts & Crafts,"
	Brain Academy is one of the finest institute in Ahmedabad. At Brain Academy all activities done at one center.",
Gravity Career Institute                  ,N/A,N/A,Airport,"Sargasan, Gandhinager, Ahmedabad, Gujarat, 380026",Ahmedabad,India,,"AIEEE, IIT JEE Mains","
	A synonym with quality education has brought a paradigm shift in the education sector of India. We have innovated new educational methodology and demonstrated extraordinary results in all targeted segments. Our every centre has same curriculum, same teaching methodology, same study material, same working system, same testing & monitoring mechanism followed.",
Saamarthya                  ,N/A,N/A,South Bopal,"E- 204, Safal Parisar 2, Near SOBO Centre, South Bopal, Ahmedabad",Ahmedabad,India,,"Learning Disabilities, Slow Learners","E- 204, Safal Parisar 2, Near SOBO Centre, South Bopal, Ahmedabad",
Music Room                  ,N/A,N/A,Bopal,"303 Sobo Center, South Bopal, Sp Ring Road",Ahmedabad,India,,"Guitar, Keyboard","
	Music room is a place where u can develop musical skills. Our unique methodology which will make students more interested and will enhance their skill and creativity. We believe everyone has their own talent and here we are aiming for those who has target to be an expert musician.",
Wirksam                  ,N/A,N/A,Maninagar,"31/A Vasant Nagar Soc.,
Gopal Chowk, Maninagar",Ahmedabad,India,,German,"

		AC rooms 

		Intellectual methods of learning language and memorizing techniques
",
English House                  ,N/A,N/A,Satellite,"11, 1st Floor Akshar Dhara 2, Opp. Dhananjay Tower, 100ft. Ring Road, Satellite, Ahmedabad, Gujarat 380015",Ahmedabad,India,,"Business English, Corporate Communication, Effective Communication, Public Speaking, Spoken English","
	English house harpal is the leading English Speaking institute in Ahmedabad, It offer dedicated courses to learn English from Basic level to Advance level with complete result guarantee.",
Ashok Sir Ielts Training                  ,N/A,N/A,Bapunagar,"1st And 2nd Floor, Sukhsagar Complex, Near Shyam Shikhar Complex, Bapunagar, Ahmedabad, 380024",Ahmedabad,India,,"Corporate Communication, IELTS, Spoken English","1st And 2nd Floor, Sukhsagar Complex, Near Shyam Shikhar Complex, Bapunagar, Ahmedabad, 380024",
Shiksha Universe                  ,N/A,N/A,Adipur,"114, Siddhi Vinayak Complex, Oppositie Reliance Petrol Pump, Tagore Road, Gandhidham/Adipur, Kutch (gujurat)India, 370201.",Ahmedabad,India,,"GMAT, IELTS, PTE, TOEFL","114, Siddhi Vinayak Complex, Oppositie Reliance Petrol Pump, Tagore Road, Gandhidham/Adipur, Kutch (gujurat)India, 370201.",
Read Aloud                  ,N/A,N/A,New C G Road,"130, Sahyog Complex, Below Sakar English Medium School, New C.g Road, Chandkheda,",Ahmedabad,India,,English,"

		Cambridge certified faculty having more than 15 years of academic and industrial experience. 

		Focused approach teaching through innovative methods.
",
Petals Krishnanagar                  ,N/A,N/A,Nava Naroda,"Dharnidhar Bunglows,
Krishnanagar, Parshwanth, New Naroda",Ahmedabad,India,,"Learning Disabilities, Slow Learners","Dharnidhar Bunglows,
Krishnanagar, Parshwanth, New Naroda",
Vr Designs                  ,N/A,N/A,Navrangpura,CEPT University,Ahmedabad,India,,"Fashion Designing, NIFT","
	VR Designs as an institute operates from Ahmedabad and helping the students in test preparation.",
Fortune Educare                  ,N/A,N/A,Ambawadi,"B-5/6, Allwish Apts, B/h Shraddha Motors, Nr Shreyas Overbridge, Ambavadi, Ahmedabad-15",Ahmedabad,India,,"Biology, Chemistry, Mathematics, Physics","
	Fortune Educare a glorious name in providing education to the students in the field of science subjects and mathematics. Building your confidence by instilling strong subject knowledge is our aim and we do it with elan! We have competent faculties, requisite infrastructure, well thought out programmes to help you out with your studies and we are sure that you will benefit.",
Concept Classes                  ,N/A,N/A,Akhbarnagar,"407, Ratna High Street, Nr Naranpura Cross Roads, Naranpura,",Ahmedabad,India,,"Chemistry, IT & Computer Subjects, Mathematics, Physics","
	We take care of individual students. All necessary guidance are provided by us. Concept Classes are here to bring out your best qualities to the fore and rectify the weak areas. Joining our classes will help you build your dream career and a responsible citizen of India.",
Insight Institute Of Professional Studies (iips)                  ,N/A,N/A,Naranpura,"1ST FLOOR, BUNGALOW NO:2, SHREEJI SOCIETY, 
BEHIND GAUTAMNAGAR BUS STAND,
NEAR NARANPURA RAILWAY CROSSING,
AHMEDABAD-380013.",Ahmedabad,India,,"CA - CPT, CA - IPCC, CS - Executive, CS - Foundation, CS Professional","
	As an institute Insight Institute Of Professional Studies (IIPS), we try to understand the requirement of each student. Once the educational needs of each student are identified, then the study pattern is planned according to their needs, within the scope of the syllabus. Learning is always suppose to be interactive and therefore, emphasis is always given on the feedback of the student regarding each topic that has been taught.",
Dan School Of Math                  ,N/A,N/A,Ahmedabad University,"B 101 Nirmal Residency 
Behind Kiran Motors Moetra Sabarmati 
Ahmedabad",Ahmedabad,India,,"Chemistry, Mathematics, Physics, IIT JAM, IIT JEE Advanced, IIT JEE Mains","
	Dan school of Mathematics is institution working in the field of developing mathematical and reasoning skill in kids up to Higher Secondary level. Institution is also working for preparation of aptitude exams conducted by various boards for college admissions like SAT , SAT Subject test, JEE Mains. Major focus at Dan School is to develop a logic based approach to solve problems asked in examinations. Interactive sessions conducted by us make students confident to go through various difficulty levels of exams. We at Dan School tries to make student passionate about the subject so that he learn the things not for the grades only but for knowledge. Approach developed by us got good results and continuous R&D in developing new techniques to deliver the content to student is part of our daily activity which makes the classroom discussions always new as the first class.",
Vijeta Academy                  ,N/A,N/A,Vejalpur,"A-309-310, Shreyas Complex, Nr. Bakeri City, Vejalpur Cross Roads",Ahmedabad,India,,"Business English, Spoken English","
	Vijeta Academy is an English learning and soft skills development training academy located in Vejalpur, Ahmadabad. We also provide job placement and recruitment services. We have highly experienced English and personality development trainer. This academy is well aware about its regularly undertakes various social activities and responsibilities.",
Aim Tuition Classes                  ,N/A,N/A,Bopal,F 504 Kabir Enclave Opposite To Homeopathic College,Ahmedabad,India,,Mathematics,"
	We provide quality education with guaranteed results for the students. Our classes are small and batches are not more than 10 students. This has been specifically designed so that the teachers can give personal attention to every student and cater to their difficulties on an individual basis.",
Communique Foundation                  ,N/A,N/A,Ahmedabad University,"402 / B, Primate Building, Opposite Mother's Milk Place, Near Judges Bungalow Police Chowki, Bodakdev",Ahmedabad,India,,"Business English, Corporate Communication, Effective Communication, IELTS, Public Speaking, Spoken English, TOEFL","
	Language is power and English opens many doors! Communique foundation, Ahmadabad aims to improve skills in English language among people of all ages. Our well designed courses include fun-filled easy methods and resources. We equip children, older students, professionals and home-makers to become fluent in using and speaking English.",
Neev Academy                  ,N/A,N/A,Amraiwadi,"3rd Floor, 305 Radhe-krishna Arcade
Opp.Hirabhai Tower
Maninagar
Ahmedabad",Ahmedabad,India,,"Accountancy, Business Organisation, Commerce Subjects, Economics, Statistics","

		Mock tests 

		Self prepared notes 

		One to one tutoring 
",
Major Kalshi Classes Pvt. Ltd.                  ,N/A,N/A,Allahabad City,"105/244, Tagore Town
Near Colonelganj Inter College, Allahabad 211001
INDIA",Allahabad,India,,"Defence Exams, NDA, Police Department Exam, SSB Exam, SSC Exams, UGC Exams, UPSC Exam","
	The Major Kalshi Classes Pvt. Ltd is one of the best Defence training coaching in India which provides the rigorous training for defence services aspirant.Its working for SSB interviews training with the proper guidance of best psychologist team of India. The Major Kalshi Classes Pvt. Ltd provides the talented faculties of UPSC syllabus. This academy provides the separate faculties for all parts of G.S (HISTORY, POL SCIENCE, GEOGRAPHY, CURRENT ISSUE, SCIENCE & TECHNOLOGY, and INTERNATIONAL RELATIONS), MATHEMATICS, PHYSICS, CHEMISTRY, and ENGLISH. Major Kalshi Classes Pvt. Ltd provides regular group discussion classes for G.S & INTERVIEW SKILL development. The Major Kalshi Classes Pvt. Ltd provides training especially for DEFENCE & AIR FORCE (NDA, CDS, ACC, AFCAT & CPF). The Major Kalshi Classes Pvt. Ltd provides eloquent study material prepared by talented faculties of UPSC syllabus. Only Major Kalshi Classes Pvt. Ltd provides assignments for aspirants to rigorous practice of UPSC syllabus.",
Bestech Solutions                  ,N/A,N/A,Allahabad,"136 A/3/1 Sanjay Tower, Patrika Crossing, Tashkand Marg, Opp Petrol Pump, Civil Lines Allahabad",Allahabad,India,,"Android Training, Embedded Systems, Networking, Robotics, Unix/Linux","136 A/3/1 Sanjay Tower, Patrika Crossing, Tashkand Marg, Opp Petrol Pump, Civil Lines Allahabad",
Kaish Classes                  ,N/A,N/A,Agriculture Institute,"B-1/24, Sector-A, Kapoorthala, Aliganj, Near Novelty Cinema, Lucknow",Allahabad,India,,"Chemistry, Mathematics, Physics","
	KAiSH Classes Offers Coaching classes for 5th to 11th (All Board) by Professionals Engineers & P. hd. holders. Having more than 15 years experience in teaching field.",
Community Pharmacist Aid-cpa                  ,N/A,N/A,Allen Ganj,Vile Parle East,Allahabad,India,,Pharmacy,Vile Parle East,
Pro Cadd Educational Services                  ,N/A,N/A,Naini,"Daud NAGAR, Above ICICI BANK, Mewa Lal Bagia, Naini, Allahabad, 211008",Allahabad,India,,"Civil, Computer, Drawing, Mechanical, Production","
	Pro CADD Educational Services is Centre of Excellence in CAD/CAM/CAE involved in Engineering Design and CAD/CAM/CAE training. We understand that the advancement of engineering and technology is a prerequisite for development. Our wide range of industry required knowledge to share by an experience personnel with our customized delivery strategy responds to every need by offering individual, tailor-made training and not just packaged products. We are facilitating training in soft skills and special training for corporate personnel. For more Call us or mail for more details on the same, we shall respond you immediately. We also provide short time of focused, customized and project-oriented training for organisations on CAD/ Project Management. Pro CADD Educational Services has successfully trained about Industry need professionals in very short time from diverse engineering, graphic and management backgrounds.",
Pathshala                  ,N/A,N/A,Rajrooppur,"Near Durga Mandir
RAJROOPPUR 
ALLAHABAD",Allahabad,India,,"Chemistry, Computer Science, Mathematics, Physics","
	Pathshala is coaching classes for UP board girls student. We are the leading institute of Allahabad providing training in all subjects from first standard to 12th standard and in all streams of graduation and post-graduation.",
Success Tutorial                  ,N/A,N/A,Rajapur,"542, A/76, Matiyara Road, Allahapur, Allahabad U. P.",Allahabad,India,,All Subjects,"
	Success Tutorial has been setup by academicians who are extremely passionate about education and believe in more than just teaching. We are dedicate to improve the quality of education currently being imparted to student who are about to choose their future careers.",
New Star Tutorials                  ,N/A,N/A,Bai-ka-bagh,S.23/62-D-A-27-R DHELWARIYA CHAUKAGHAT VARANASI,Allahabad,India,,"Chemistry, Computer Science, Mathematics, Physics","
	New star tutorial is an education blog which gives you useful information and knowledge of subjects like mathematics, physics, chemistry and computer. Other subjective files are also available to download.",
Creative Zone Cadd Training Institute                  ,N/A,N/A,Naini,13-e Mewalal Bagiya Uco Bank Building Nain,Allahabad,India,,"Civil, Drawing, Mechanical, C, C++, C# (C Sharp), Java and J2EE, Visual Basic, Advanced Excel, Basic Computer, MS Office, Tally ERP 9","

		Individual Student Guidance with true care. 

		Special Attention to weak students. 

		Detailed chapters coverage. 

		Specialized notes for the subjects. 

		Weekly tests, Monthly practice tests and Exam mock tests. 
",
Dwivedi Classes                  ,N/A,N/A,Jhunsi,"Awas Vikas Colony, Near Amrit Sweets House",Allahabad,India,,"Algebra, All Subjects, Mathematics, Physics, Biology, Chemistry, AIEEE, AIPMT",If you are seeking school or college level coaching then Dwivedi classes will provide you with all the solutions. Our classes are designed with competent subjectr experts and well planned teaching and evaluation methods. We provide attention to each students development and ensure that everybody gets their due from us.,
Mahendras Sultanpur                  ,N/A,N/A,Civil Lines,"1st Floor, Usha Commercial Complex, Raj Hotel Compound, Above Bank Of Baroda, Civil Lines, Sultanpur",Allahabad,India,,"Basic Computer, MS Office, Tally ERP 9, Corporate Communication, Effective Communication, Spoken English, Interview Skills, Presentation Skills, Public Speaking, Soft Skills, GATE Exam, GRE, TOEFL, Telephonic Skills","
	Learning is not attained by chance, it must be sought for with ardor and diligence. Mahendra’s Sultanpur is the learning hub in the city. Education's purpose is to replace an empty mind with an open one. It is a progressive discovery of our own ignorance. A human being doesn't attain his full height until he is educated.",
Mahendras Pratapgarh                  ,N/A,N/A,N/A,"Courses:Basic Computer, MS Office, Tally ERP 9, Corporate Communication, Effective Communication, Spoken English, Interview Skills, Presentation Skills, Public Speaking, Soft Skills, GATE Exam, GRE, TOEFL, Telephonic Skills",Allahabad,India,,N/A,"
	Mahendra’s Pratapgarh works to serve a broad section of the society. This is among the leading institutions in the given field. Society and knowledge cannot be ever separated into two distinct entities. The education we provide is indispensable and cohering. We aim to be one institute who's first priority would always be its students.",
Mahendras Basti                  ,N/A,N/A,N/A,"Courses:Basic Computer, MS Office, Tally ERP 9, Corporate Communication, Effective Communication, Spoken English, Interview Skills, Presentation Skills, Public Speaking, Soft Skills, GATE Exam, GRE, TOEFL, Telephonic Skills",Allahabad,India,,N/A,"
	We are among the best institutes of Basti, UP. Basti being a town with a very good literacy rate makes us run into competition with many institutes, but our proficient learning experience given to the students makes us stand out of the crowd. Updated and detailed study materials with sufficient coaching makes our students reach out for success without much difficulty.",
Mahendras Allahabad                  ,N/A,N/A,Civil Lines,"124 C / C Ashirwad Bhawan, Tej Bahadur Sapru Marg Civil Lines, Allahabad",Allahabad,India,,"Basic Computer, MS Office, Tally ERP 9, Corporate Communication, Effective Communication, Spoken English, Interview Skills, Presentation Skills, Public Speaking, Soft Skills, GATE Exam, GRE, TOEFL, Telephonic Skills","
	Mahendra's happen to be the best coaching hub in and around Allahabad. Proper guidance and detailed study materials are our specialty. We conduct special classes on quantitative aptitude for weak students. Details regarding latest vacancies and results are provided to the students in order to keep them updated. A healthy atmosphere for a great learning experience is what we believe in providing to the students.",
Classes Of Ayush Kumar                  ,N/A,N/A,Teliarganj,Swaraj Nagar Near Mnnit,Allahabad,India,,"Zoology, Statistics, Sociology, Social Studies, School level computer, Psychology, Political Science, Physiology, Physics, IIT JEE Mains, Philosophy, Mathematics, Logic, IT & Computer Subjects, History, Hindi, Geography, Food & Nutrition, Fashion Study, EVS, English, Education, Economics, Costing, C... More [+]","
	Classes of Ayush Kumar   is one of the India's  leading academic institution. offering a unique friendly  environment that prepares the next generation to lead and make a difference in this competitive world. We are a family of honest and true students, faculty, alumni and professionals dedicated to serving the eager mind to get success. At present Classes of Ayush Kumar Students become a synonym of success in education and coaching for various school level subject.Throughout the academic session, Classes of Ayush Kumar is maintaining its best quality and standard of teaching, becoming the leader amongst  the other institutions  at present scenario. ",
Nuzhat Academy                  ,N/A,N/A,Khuldabad,"Flat No 13, New Market Khuldabad",Allahabad,India,,"Spoken English, Science, Public Speaking, Physics, Mathematics, Language, History, Hindi, Geography, EVS, English, Effective Communication, Corporate Communication, Computer, Chemistry, Biology, All Subjects","
	Nuzhat Academy is one of the India's  leading academic institution. offering a unique friendly  environment that prepares the next generation to lead and make a difference in this competitive world. We are a family of honest and true students, faculty, alumni and professionals dedicated to serving the eager mind to get success. At present Nuzhat Academy Students become a synonym of success in education and coaching for various school level subject.Throughout the academic session, Nuzhat Academy is maintaining its best quality and standard of teaching, becoming the leader amongst  the other institutions  at present scenario. ",
Parivartan Coaching Institute                  ,N/A,N/A,George Town,"Parivartan
10/18 E, Lowther Road , George Town",Allahabad,India,,"GRE, GMAT, TOEFL, Stock & Share Trading, Forex Trading, Investment Training, Book Keeping, Customer Service, HR/Personnel, Journalism/Writing, Life Coaching, Marketing:Communication, Marketing:Online/SEO, Presentation Skills, Public Speaking, Sales Training, SAP Training, Healthcare Management, IELT... More [+]","
	Parivartan Coaching Institute  is one of the India's  leading academic institution. offering a unique friendly  environment that prepares the next generation to lead and make a difference in this competitive world. We are a family of honest and true students, faculty, alumni and professionals dedicated to serving the eager mind to get success. At present Parivartan Coaching Institute has become a synonym of success in education and coaching for IBPS, Bank PO etc.Throughout the academic session, Tara Institute is maintaining its best quality and standard of teaching, becoming the leader amongst  the other institutions  at present scenario.",
Lovely Education Centre                  ,N/A,N/A,Shantipuram,"223, C.b.gupta Colony, Shamli",Allahabad,India,,"Mathematics, Physics, English, History, Geography, Accountancy, Botany, Business Maths, Chemistry, Computer Science, Costing, Economics, Education, Hindi, Physiology, Political Science, Psychology, Sociology, Zoology, Biology, Statistics, UPSC Exam, SSC Exams, Defence Exams, Insurance Exams, Bank Cl... More [+]","
	Foundation caters coaching of a wide ranges of regular courses. We have the right ambience of learning and our very learned faculties makes you develop an interest to your studies and this way you will experience enhanced learning abilities and results. Come and join us and feel the difference!A low student to faculty ratio combined with many years of teaching experience results in a truly supportive learning environment. We are renowned for our professional faculty and the quality of teaching. The institute is substantial enough to have good facilities and at the same time we ensure that our students are treated as individuals.",
Rai Tutorials                  ,N/A,N/A,Ashoke Nagar,"Ut-204, Ashok Vihar, Ashok Nagar",Allahabad,India,,"English, Accountancy, Botany, Business Maths, Chemistry, Costing, Economics, Education, Geography, Hindi, History, Mathematics, Physics, Physiology, Political Science, Psychology, Sociology, Zoology, Biology, Statistics, IIT JEE Mains, UPSC Exam, SSC Exams, Defence Exams, Insurance Exams, Bank Cleri... More [+]","
	Rai Tutorials  is an institute for school students where they will get good facility and calm studying atmosphere with a very high level of teaching. We will identify the strength and weakness of each student individually for their studies. Our method of teaching is similar to home tuition where every student get individual attention .We welcome all the parents and students who are looking for good tutoring",
Commerce Guru                  ,N/A,N/A,Bahmalpur,Allahabad,Allahabad,India,,"English, Hindi, Language, Mathematics, EVS, History, Geography, Science, Computer, Physics, Chemistry, Biology, All Subjects, Economics, Zoology, Accountancy, Commerce Subjects, Botany, Business Maths, Costing, Education, Physiology, Political Science, Psychology, Sociology, Statistics, Food & Nutri... More [+]","abhay agrawal
manish pandey
imran khan",
Rd International                  ,N/A,N/A,Indiranagar,#2151 First Floor 17th Main. HAL II Stage. Indiranagar. Opposite To BESCOM Office Bangalore 560008.,Bangalore,India,,"Study in USA, IELTS, Study in Germany, GRE, Study in New Zealand","
	Why to take IELTS test prep from RD International?

	 

	•           More than 50 hours of comprehensive program for IELTS test preparation

	•           Exclusive Comprehensive Study Material.

	•           Additional Homework assistance to supplement the classwork instruction.

	•           Extensive practice worksheets to supplement classroom instruction.

	•           Test taking tips and strategies for getting high scores.

	•           Experienced faculty with years of experience in this field.

	 

	•           Assistance for Admissions for Study Abroad & Visa assistance.",
Eon Education                  ,N/A,N/A,Jp Nagar,"J P Nagar 1st Phase, Near Indira Gandhi Circle",Bangalore,India,,"All Subjects, Accountancy, Geography, History, Hindi, IT & Computer Subjects, Spoken English","
	We are one of the best tutorial center of Bangalore.We have branches in Pune, Hyderabad and Chennai also.",
Better Your Grades                  ,N/A,N/A,Cubban Road,"Koramanagala, Bangalore",Bangalore,India,,"Biology, Chemistry, English, EVS, Mathematics, Physics, Science, Algebra, Zoology, Bio Technology, Botany, Olympiad Exam Preparation","
	We, at Better Your Grades, provide tutoring services for students between 5th -12th grade. We have expert tutors for English, Maths, Physics, Chemistry and Biology. We were established with the prime objective to serve our clients with best of education. Our intensive coaching program is dealt with diligence and support for superior learning.",
Premier Tuitions                  ,N/A,N/A,Jp Nagar,"No 13/1, 10th Cross, Hosur Main Road, Bommanahalli, Bangalore 560068",Bangalore,India,,"All Subjects, Accountancy, Biology, Botany, Chemistry, Economics, English, Geography, History, Mathematics, Physics, B.Com Tuition, B.Ed Tuition, B.Sc Tuition, BA Tuition, Banking & Finance, BBA Tuition, BCA Tuition, Business Maths, Costing, Direct Tax, Electronics, AIEEE, Architecture, BCA Entrance... More [+]","
	Premier Tuitions concentrate exclusively only on Bangalore region and is the outcome of a long quest to combine the latest in pedagogy, through its unique tutoring methodology, with the best in technology, which makes it available to students from all over the Bangalore.",
First Guide Academy                  ,N/A,N/A,Hsr Layout,"Shri Manjunath Arcade, 669, 1st Floor, 9th Main, Vll Sector, Hsr Layout, Bangalore, 560102",Bangalore,India,,"Olympiad Exam Preparation, Biology, Business Maths, Chemistry, Commerce Subjects, Computer Science, Economics, English, Mathematics, Physics, Statistics, Accountancy, Algebra, All Subjects, EVS, Geography, Hindi, History, Marathi, NSTSE, NTSE, School level computer, Social Studies, Special Education... More [+]","
	First Guide Academy is an industry-leader in academic tutoring programs that help students develop valuable studying skills resulting in higher learning abilities and better grades. As part of our ongoing commitment to learning, we provide tailor-made resources for students including prep tests and refresher courses. Our mission at First Guide Academy is to help students achieve success with our flexible, affordable competency based courses. Since our inception, we have actively worked with parents and students to establish student goals. We have designed our courses to be affordable and accessible to students at every stage of their educational career making it easy to streamline life education and fun. Our amazing teachers, supportive coaches and our resources are designed to appeal to all kinds of learning styles, we’ve created a vibrant environment that listens to individual needs and values each and every student’s success.",
Schoolpage Tutorials                  ,N/A,N/A,Koramangala,No.659 5th Main Road Ombr Layout Bangalore - 560043,Bangalore,India,,"Chemistry, English, Mathematics, Physics, French, German, Hindi, Spanish","
	School Page is the outcome of a long quest to combine the latest in pedagogy, through its unique e-Tutoring (STS) methodology, with the best in technology, which makes it available to students from all over the world.While there are large numbers of great teachers available throughout the world, great teaching and great tutoring are very different in many ways and require very different approaches. There are also many differences between classroom teaching and off-school tutoring methodologies. With this in mind, the SchoolPage team worked with other global academics to create the unique SchoolPage e-Tutoring System (the STS), which is based on Richard E. Mayer’s ‘Cognitive Theory of Multimedia Learning’. The STS is a highly structured academic system. Through the use of a 9-stage lesson organizational structure, STS is used in every SchoolPage session ensuring better engagement, superior retention and rapid results. STS includes the use of cognitive tools such as Mind Mapping, self-diagnosis tools such as Comfort Boxes, and Learning Outcomes that are highly student centric.",
Institute Of Sai                  ,N/A,N/A,Nandini Layout,"No 1245, 1st Floor Sai Ramaneeyam, 3rd Cross 1st Block, New Thippasandra, Geethanjali Layout, Road Opposite To Shakthi Ganapathi Temple And Kalyana Mantap, Bangalore, 560075",Bangalore,India,,"CS - Executive, CS - Foundation, CS Professional, Direct Tax Laws, BBA Tuition, Business Maths, Mathematics, Statistics, Administrative Laws, Civil Laws, Law Entrance, Company Laws, Contract Act Laws, Criminal Laws, Jurisprudence, LLB, LLM, Tax Laws, BBA Entrance, BBA Subjects, MBA Entrance, Managem... More [+]","Institute of Sai is a registered and well established coaching academy offering coaching for UGC NET Examinations, Judicial Services examination, CLAT, and Company Secretary courses at New Thippasandra, Bangalore.",
Aecs World                  ,N/A,N/A,Banshankari,"1, 1st Floor,21st Main, Banashankari 2nd Stage Near Bda Complex, Opp. Pizza Hut, Bangalore",Bangalore,India,,N/A,"
	AECS World is well reputed and established Overseas Education Consultancy and training provider. We provide training, information, advice and support for students and professionals considering an education in USA, Australia, Canada, UK, Germany, Sweden, Finland, Denmark, Norway, Ireland, Netherlands and other countries worldwide, where students and working professionals can avail all overseas education related services at one stop. Here at AECS World we provide the education and service to foster a comfortable intercultural learning. We are committed to help students get admission into their dream university abroad along with the step-by-step guidance for the entire application and documentation process, education loan, student visa, living expenses, accommodation, scholarship information, part time jobs and other pre-departure briefings. Our systematized approach and network with all the universities and colleges help our students and parents in getting the complete information and guidance about overseas education.",
Hurray - Kormangala                  ,N/A,N/A,Koramangala,"No 367, 7th Block, Above Sweet Chariot
( Opposite H D F C Bank ),
Koramangala",Bangalore,India,,"Corporate Communication, Effective Communication, IELTS, Spoken English, TOEFL, GMAT, GRE, PTE, SAT, Study in Germany, Study in Ireland, Study in USA, Android Training, Software Testing","One of the finest training centre in Bangalore with offices at multiple important areas like, Koramangala, Indiranagar, Domlur, Adugudi, BTM Layout Old Airport road, KR Puram, Marthalli. Our trainers are best in the industry and a wide ranges of basic and advanced courses are on offer. Get yourself a good training as per your choice and skills and place yourself at the right track in your career path.",
Hurray - Indiranagar                  ,N/A,N/A,Indiranagar,"No 367, 7th Block, Above Sweet Chariot ( Opposite H D F C Bank ), Koramangala",Bangalore,India,,"Spoken English, Corporate Communication, Effective Communication, IELTS, TOEFL, Android Training, Software Testing, PTE, Java Script","
	As Hurray consultancy is well-connected with a network of reputed companies, our team can help you access a pool of opportunities. We are known for our screening tools and methodologies in the recruitment industry.",
Collaboration Technologies                  ,N/A,N/A,Vijayapura,"314,  Ist H Cross , 7 Th Main Subbanna Garden Vijayanagar",Bangalore,India,,".Net, C, C++, C# (C Sharp), Java and J2EE, Perl Programming, Python Programming, Shell Scripting, Visual Basic, Android Training, BCA Subjects, Embedded Systems, Ethical Hacking, Hardware Training, Interior Designing, iOS Training, MCA Subjects, Networking, Programming Language, RHCE Training, Robot... More [+]","
	Collaboration Technologies located in Bangalore India. Software development training and consulting centre. It is a software development, technology and consultancy centre. We are dedicated to deliver good quality services in Software development and consultancy and have expertise in training to improve the quality of work at all levels in an organization. Our team is professional, experienced and proactive and our great strength is in translating our client's business requirements into workable solutions. We have the skills and commitment to make that a reality.",
S M F Educational Solutions                  ,N/A,N/A,Adoni,"Bangalore H.o : 504,unity Complex, Type-c, Wing -2, Opp.bharati Park, Mira-bhayander Road, Mira Road(e), 400107",Bangalore,India,,"Communicative English, Mental Maths, ACCA, CA - CPT, CA - Final, CA - IPCC, CFA, CIMA Certification, CMA Final, CMA-CPA-ACCA-CIMA, CS - Executive, CS - Foundation, CS Professional, Direct Tax Laws, ICWA & ICWAI, All Subjects, Biology, Chemistry, Computer, English, EVS, Geography, Hindi, History, Lan... More [+]",We provide state of the art technology with modern infrastructure in an centrally air conditioned environment,
Elite Iit                  ,N/A,N/A,Jalahalli,"63, Durga Arcade, 41st Cross, Jayanagar 8th Block",Bangalore,India,,"ACCA, CA - CPT, CA - Final, CA - IPCC, CFA, CFP, CIMA Certification, CMA Final, CMA Foundation, CMA Intermediate, CMA-CPA-ACCA-CIMA, CPFA, CS - Executive, CS - Foundation, CS Professional, Direct Tax Laws, ICWA & ICWAI, Accountancy, Botany, Chemistry, Commerce Subjects, Costing, Mathematics, Physics... More [+]","
	The name Elite IIT has been associated with coaching programs for established and emerging competitive entrance exams of high quality with innovative & creative exams of high quality with innovative & creative personal classes with attention on the students individually. ELITE IIT specialize in effective placement of professionals in entry, middle and senior management positions across industry verticals. As a responsible recruiter we believe in a systematic understanding of our client's requirements and then it is but common sense to base one's search and selection processes on it.",
Jagriti                  ,N/A,N/A,Whitefield,"Ramagondanahalli, Varthur Road, 
Whitefield, Bangaluru Karnataka",Bangalore,India,,"Acting & Drama, Summer Camps","
	Jagriti a space of performance art wholly dedicated to Theatre, Music, Dance and Comedy. we are dedicated dedicated to support new work and artistes through collaborations with local and international companies. Along with this we also promote drama training as well as a a platform for children to explore theatre and performance.",
Kydz Adda                  ,N/A,N/A,Banshankari,"2nd Floor, 980, 13th Cross, Ring Road, Banashankari 2nd Stage, Bangalore",Bangalore,India,,Summer Camps,"
	Kydz Adda offer various various academic enrichment program, workshops and camps for young children. We are committed towards offering the best educational support at an affordable price. All our trainers are all experienced and dedicated to offer the best training and help students attain their maximum potential.",
Magic Hive                  ,N/A,N/A,Jp Nagar,"#305, 7th Main, 5th Cross
RBI Layout, JP Nagar 7th Phase
Bangalore",Bangalore,India,,"Summer Camps, Workshops & Seminars","
	Magic Hive specializes in conducting various workshops and camps ensuring overall development of young children. All our program are designed in a manner which helps overcome fear and get filled with self confidence. Our program are focused towards the long term development of the students helping them in the long run.",
Little Elly                  ,N/A,N/A,Hsr Layout,"No.02, Honeydew Mansion 
1st Floor, 17th Main, 14th Cross, Hsr Layout Sector 7,
Near BDA Complex",Bangalore,India,,Summer Camps,"
	Little Elly is an initiative of Learning Edge India Pvt. Ltd. working with the objective of helping students learn without being made to feel he/she is being taught. We believe that early years of childhood are wonderful years and therefore crucial for their information. We believe that learning is a lifelong process and that every child is unique and special.",
Kidsstudios                  ,N/A,N/A,Shivaji Nagar,"Kodamballi, Near Chennapattana
Bangalore",Bangalore,India,,Summer Camps,"
	Kidsstudios organizes various fun workshops and summer camp programs for students of all age groups. This year also we are organizing a 3 days and 2 nights Nature Awareness & Adventure workshop with lot of Adventure activities like Tarzan bridge, Zip line, Trekking, Rope traverse, Organic farming and loads of fun activities.",
Nouvo                  ,N/A,N/A,Indiranagar,"2nd Floor, No 35, 2nd Cross, 10th Main Road, Indiranagar, Bengaluru",Bangalore,India,,Summer Camps,"
	Nouvo is an Image Consultancy based in Bangalore. We conduct various corporate training programs and workshops. Our training programs are specially designed which help employees develop a positive attitude and increase their self-esteem. We also help them to develop great interpersonal relationships.",
Dhaatu                  ,N/A,N/A,Banshankari,"3944/ F, 17th D Cross, 4th Main, 2nd Stage, Banashankari",Bangalore,India,,Summer Camps,"
	Dhaatu is a renowned organization located in Banashankari, Bangalore. It stands as one of the leading Classical and Traditional Puppet Theatres of India. We perform various shows at different locations in and outside India. We are currently organizing a summer camp workshop based on Mahabharata.",
Swimlife                  ,N/A,N/A,Hosaholalu,"No. 43, 12th Cross, Ram Mandir Road, S.R. Nagar",Bangalore,India,,"Swimming, Summer Camps","
	Swimlife is a Professional Swimming Academy and is registered under Karnataka Swimming Association. We offer training service for everyone in the sport of swimming. Apart from normal training sessions, we also organize Swim Meets of any level i.e. District, Schools, State, Intra Corporate, Inter Corporate and Inter Clubs.",
Toehold                  ,N/A,N/A,Jayanagar,"No. 359, 2nd Floor, 16th Main, 4th T Block, Jayanagar, Bangalore",Bangalore,India,,"Summer Camps, Photography","
	Toehold offers high-quality photography-oriented travel and other services. Today we stand as a leading provider of Photography workshops, tours and events. Through our quality service and commitment, we strive to be the best Photography training provider. Through a combination of innovation; diligence in planning and execution, we wish to achieve our paramount mission of delivering the best training service.",
Chhavi Art Classes                  ,N/A,N/A,Bellandur,"Bellandur, Bengalore",Bangalore,India,,"Summer Camps, Arts & Crafts","
	Chhavi Art Classes is an art and cultural training institute offering Art classes for both children as well as adults. We aim to offer the best service at an affordable cost. Our classes are intensively designed in order to meet the varying needs of the students. All our instructors are highly trained and professional. Along with the normal classroom sessions we also conduct various short term programs and workshops.",
Jumbo Kids                  ,N/A,N/A,Uttarahalli,"971, 29th Main Road, Poornapragna Layout, Uttarahalli Main Road",Bangalore,India,,Summer Camps,"
	Jumbo Kids, from the very beginning has been focused and motivated by the traditional values, honesty and integrity of India. We follow innovative training methods and are committed towards delivering quality through integrity. Through our committed approach and quality service, today we stand as a trusted name in the educational sector.",
Sand And Pebbles                  ,N/A,N/A,Uttarahalli,"No. 203, 8th Cross, 8th Main, Bikasipura Kumaraswamy Layout",Bangalore,India,,"Summer Camps, Arts & Crafts, Keyboard, Modern Songs","
	Sand And Pebbles is a Child learning and activity center. We follow an integrated system where we use the montessori methods along with kindergarten methods to develop children into smart young boys and girls. Every child can visit us and experience the place and potential within them.",
3b Robo School                  ,N/A,N/A,Indiranagar,"No. 1075-A, 10th Main, HAL 2nd Stage , Bangalore",Bangalore,India,,"Summer Camps, Robotics","
	3B Robo School is a Robotics training institute offering educational programs and workshops related to Robotics. We are supported by a strong team of engineers and esteemed faculty advisers who are well experienced in this field. Over the past several years we have been inspiring and preparing our students to compete in National and International competitions. We apply modern day techniques towards teaching the students. We specialize in offering professional courses on Robotics, both digital and analog type.",
Playgym                  ,N/A,N/A,Kalyan Nagar,"7M-215, 7th Main Road (80 Feet Road), HRBR Layout 2
Kalyan Nagar, Banaswadi, Bangalore",Bangalore,India,,"Summer Camps, Badminton, Cricket","
	Playgym was established with the objective to provide young children fun, creative, innovative and exhilarating spaces so they grow into healthy, happy, strong individuals. We offer a creative, joyful and energetic playspace for children of all ages. We offer creative play and an assorted of structured class including Gymnastics, Football, Tennis, Karate, Yoga, Rock climbing and much more.",
Ima Recreation                  ,N/A,N/A,Indiranagar,"Haat No 26, Bangalore Santhe, Swamy Vivekananda Metro Station, 80 Feet Rd, Old Madras Rd Jn, Indira Nagar",Bangalore,India,,Summer Camps,"
	IMA Recreation is a well established social enterprise conducting several social programs, game plans and camping events for children as well as adults. We have conducted several camps using traditional games which was appreciated by all.",
Dauto Engineering Private Limited                  ,N/A,N/A,Kasturba Nagar,"B-56, Authorized Catia Training Center, 1st Floor, Kasturba Nagar, In Front Of Chetak Bridge, Bhopal, 462023",Bhopal,India,,"Civil, Computer, Drawing, Mechanical, Production","
	Competition is getting high in today’s world, expectations of customers increasing where they require quality in quantity but at reasonable cost. It is a challenging task to maintain profitability of operations. DAuto is an ISO 9001-2008 certified engineering services provider firm and has determination to improve the high-value added services which has been delivering constantly. To introduce the superior products at reduced costs that too with shorter lead times is a continuous challenge, face by the product design and development companies worldwide. DAuto, with the experience of decades, provide solution for the product design and development. Making the product feasible comprehensible to the manufacturing industry, understanding the traditional and evolving needs of the global organization is the recipe of high FTR (first time right) ratio of DAuto.",
Radharaman Institute Of Technology And Science                  ,N/A,N/A,Saket Nagar,"242/2A, Saket Nagar Bhopal, Near Aiims Bhopal",Bhopal,India,,"Mathematics, Physics","
	Radharaman Institute of Technology and Science are a group of passionate people working on a mission, which is to help schools transform the way they operate. We feel that technology can be a powerful enabler for school education.",
S3 Classes                  ,N/A,N/A,Kola Road,"E-604, Janaki Apartment , Nayapura, Kolar Road, Bhopal",Bhopal,India,,"Chemistry, Computer Science, IT & Computer Subjects, Mathematics, Physics","
	S3 Classes holds expertise in providing training to the students. Situated in Bhopal, we provide intense training programs for techies to learn and enhance their skills.",
Focus Institution For Education                  ,N/A,N/A,Nehru Nagar,"Nehru Nagar, Bhopal, 462003",Bhopal,India,,"Chemistry, Mathematics, Physics, Algebra, Social Studies","
	Focus is an Educational Institute for the students of 9th/ 10th/ 11th /12th, MATHS & PHYSICS (CBSE/MP Board) and is currently available at NEHRU NAGAR/ PREM PURA/ SAKET NAGAR/ KATARA HILLS. Silent Features of FOCUS: Focus is highly committed towards its fine art of modern learning skills which gives easy approach to the students for improving their performance. Subject specialist faculties. Proper attention is to be maintain for each student for improving the performance of every student. Special Study material to be provided which helps quick revision of particular subject. Regular test is to be schedule topic wise to watch the performance of every student topic wise, so that we can improve the weak student's performance. Conduct parents meeting every month to share their views and performance of the student. Our aim is improve the performance of the student by making their interest in learning, and i think that affects altos. For Mechanical Engineering Students: We provides brain storm Ideas to Mechanical Engineering Students for there major/ minor projects in Machine Design Kinematic/ Dynamics of Machine Thermal Engineering Manufacturing Technology.",
Advance Engineering Classes                  ,N/A,N/A,Mp Nagar,"Plot No. 128, Above Sbi Bank, Near Pragati Petrol Pump, Zone-ii,",Bhopal,India,,"Chemistry, IIT JEE Mains, Mathematics, Physics","
	Advance Engineering Classes is the best coaching institute for engineering and diploma students preparing for Govt. engineering exams.",
Lingosmio Bhopal                  ,N/A,N/A,Mp Nagar,"MP Nagar, Bhopal",Bhopal,India,,"Chinese, English, Hindi, Mandarin, Spanish","MP Nagar, Bhopal",
Tonar Systems & Technology                  ,N/A,N/A,Indrapuri,S6 Shridhar Mohini Parishar Indrapuri Bhel Bhopal,Bhopal,India,,"Big Data & Hadoop, Data Structures, DBMS & RDBMS, PL/SQL, 2D Animation, 3D Animation, 3D Max / Maya, 3D Printing, AutoCAD  Training, Corel Draw, CSS Training, HTML Training, .Net, C, C++, C# (C Sharp), Java and J2EE, Digital Marketing, Java Script, Magento Training, PHP and MySQL, Wordpress Training","
	Tonar Systems & Technology are a group of passionate people working on a mission, which is to help Schools transform the way they operate. We feel that technology can be a powerful enabler for School Education. Building simple and powerful technology tools that can be used by Schools to simplify their management and collaboration is what we do.",
Erp Solutions                  ,N/A,N/A,Mp Nagar,"C-9, B D A Colony, Near 6 No. Bus Stop, Shivaji Nagar, Bhopal",Bhopal,India,,"ERP Training, SAP Training","
	ERP Solutions was intercepted with a vision to provide solutions and services in the field of Information Technology. We are having an alliance with Terrenos Software Technologies Pvt. Ltd. ( A SAP Channel Partner) having their operations in India, UK and USA for offshore projects and consulting services. Our goal is to always to keep students focused on understanding. Our teaching approach is catered to the individual student.",
German Language Classes Bhopal                  ,N/A,N/A,Arera Colony,"Plot No. B - 269, Flat No. 22, Ii Nd Floor, 
Satkar Apartment, Near Amaltas Complex 
( Near Shahpura Lake ) B Sector, Shahpura,",Bhopal,India,,German,"
	German Language Classes Bhopal imparts training in german languages classes. We bring you comprehensive programs in various languages. The programs are designed to provide a complete learning of the languages in reading, writing, listening and speaking with history and cultural knowledge of the place the language belong.",
Blossoms                  ,N/A,N/A,Shahpura,B-228 Shahapura,Bhopal,India,,"Abacus Training, Handwriting, Language","
	As an institute we are constantly looking for the enrichment of the students associated with us. We strongly believe that to groom a person grooming has to be from the childhood state.",
Gate Way To Success                  ,N/A,N/A,Mp Nagar,Gate Way To Success 131/14 Jindal Complex Zone 2 MP Nagar Bhopal,Bhopal,India,,"Civil, Electrical, Electronics, Mechanical, DMRC Entrance, PWD & CPWD, Railways Exams, SSC Exams","
	GTS (Gateway to Success) - a name synonimous a way to success founded and supported by alumni of IIT'S (Indian Institute of Technology). GTS is a pool of brians which help and suggest the way to success. The majority of students aspire to be placed well (in Govt Jobs) but very few of them realize their aspirations because they lack proper guidance despite deserving to complete. In fact, if they are motivated and trained properly for the preparation of these competitive exams with an edge, they are bound to succeed. Aiming to help realize the dreams of thousands of such students GTS is provided with success gurantee plan for competitive exams. GTS provide comprehensive regorous classroom coaching for AE/JE technician recruitment test (Diploma/BE/ITI level) in various PSU'r railways SSC-JE metro railway, SAIL, state electricity board, and various AE/JE/Technician jobs of state and central government in their various department like pwd, EWD, irrigation , bridge corporation etc. by creating an excellent competitive environment in student community by virtue of imparting qualitative education with consolidated strategy and scientific approach gets students clear their recruitment.",
Cognate Minds                  ,N/A,N/A,Bhel,"Plot No 22, Sector C",Bhopal,India,,"Business English, Corporate Communication, Effective Communication, Spoken English, Handwriting, Communicative English, Personality Development, Speech & Drama, Acting & Drama, Film Making, Summer Camps, Group Discussion, Interview Skills, Presentation Skills, Soft Skills","

		Small Batch of 25

		Best Grooming and Professional Environment

		Library Facility

		Hostel Facility
",
Grannys Garden                  ,N/A,N/A,Danish Nagar,"1st Building, HarvanshVihar, Danish Nagar Bus Stop, Hoshangabad Road",Bhopal,India,,"Abacus Training, All Subjects, Business English, Corporate Communication, Effective Communication, Spoken English, Basic Computer, MS Office","
	Granny’s Garden is one of the leading educational institute in Bhopal. We offer a wide range of courses including English speaking, abacus, computer, hand-writing improvement, crash courses and many more. Along with this, we are the only institute that provide coaching classes for all subjects from standard 1st to 12th. Our teaching methodology is totally different from conventional methods of classroom teaching. We provide interactive learning environment to our students, focus on individual student performance and provide active participation between student and teacher. Granny’s Garden welcomes you to join our community for amazing learning experience.",
Economics Tutorial                  ,N/A,N/A,Kola Road,Economics Tutorials,Bhopal,India,,"All Subjects, EVS, Geography, History, Business Studies, Commerce Subjects, Economics, Statistics, IAS Preparation, IES Exam, MPPSC, UGC Net, BA Tuition, Banking & Finance","
	We provide tuition economics and business studies for all classes and Home tuition for class 11 and 12 CBSE and other boards.",
Gurukul                  ,N/A,N/A,Mp Nagar,"H-23 , First Floor , Opp. Pragati Petrol Pump , Zone",Bhopal,India,,"All Subjects, Chemistry, Commerce Subjects, Mathematics, Physics, Spoken English, Effective Communication","
	We are very renowned study center located in Bhopal. We provide complete guidance and help students to achieve their dream",
Sigma4 Tutorials                  ,N/A,N/A,Malviya Nagar,Madan Mahal Jabalpur,Bhopal,India,,"Computer Science, Mathematics, School level computer, Mental Maths, IT & Computer Subjects, Data Structures, Computer, IT","

		Coordinate Geometry

		3D geometry

		Trigonometry

		Calculas in higher secondary mathematics

		Engineering mathematics Compiler Design

		Operating Systems

		Theory of Computations

		Computer Architecture & Organization

		Design & Analysis of Algorithms
",
Gurukul                  ,N/A,N/A,Bhopal Talkies,"H-23 , FIRST FLOOR",Bhopal,India,,"All Subjects, Computer, Communicative English, Special Education, English, Accountancy, Business Maths, Computer Science, Mathematics, Hindi",Gurukul is a reputed tutorial based in the city of Bhopal. We are having well designed coaching programmes for all school students. Here study is a sacred activity and we perform it with utmost dedication and integrity. Students passed through us carry a wealth of knowledge and a beautiful mind.,
Hamrahi Corp.                  ,N/A,N/A,Surendra Vilas,"A-33, SANSAR BUILDING, VIDHYA NAGAR",Bhopal,India,,"Accountancy, Economics, CA - CPT, Management Subjects, Tally ERP 9","We are a tutorial institute for vocational training and placement services, promoted by Hamrahi Group. We are primarily based in the city of Bhopal for school and intermediate subject. Our programmes are well researched and designed as per the students need and the demand of the industry. Join our programmes and benefit a better future !",
Erp Infotech                  ,N/A,N/A,Mp Nagar,137/1 Infront Of Vikramaditya College M.p. Nagar Zon-2,Bhopal,India,,"Management Subjects, SAP Training, Shipping & Logistics, Business Etiquette, Soft Skills","ERP Infotech provides training in all modules of SAP with placement assistance. Training in SAP SD, MM, FI/CO, HR, ABAP, BASIS etc available here. We have best faculties and infrastructure and the right ambience to bring the best in you.",
Vidhya Institute                  ,N/A,N/A,Saket Nagar,"188/2c, Saket Nagar, Bhopal, Madhya Pradesh",Bhopal,India,,"Chemistry, English, Mathematics, Physics, Electronics, IELTS, Study in Australia, Study in New Zealand, Study in UK","
	- Mock tests

	- One to one tutoring

	- Self prepared notes",
In-home Tutors Academy.                  ,N/A,N/A,Minal Residency,PLOT NO.44 SAGAR  ESTATES AYODHYA BY PASS ROAD,Bhopal,India,,"All Subjects, Accountancy, Computer Science, Economics, Mathematics","Why  In-Home Tutors Academy! Tutoring


	In-Home Tutors Academy! Tutors are Qualified Teachers and/or Degreed Professionals


	In-Home Tutors Academy! Tutoring is One-on-One, Private and Personalized to the Students Needs

	In-Home Tutors Academy! Tutoring is performed In Your Home and Around Your Schedule

	In-Home Tutors Academy! Tutoring is Affordable and Does Not Require Long Term Contracts",
Knowledgestudio                  ,N/A,N/A,Mp Nagar,"Mp Nagar, Bhopal 
462001",Bhopal,India,,"Accountancy, Business Studies, Commerce Subjects, Economics, B.Com Tuition, Direct Tax, Indirect Tax, Company Laws, Contract Act Laws, Criminal Laws, Tax Laws, Event Management","We at Knowledge Studio are committed to groom you to perform best not just in exams but in your life. We primarily deliver educational lessons in an unconventional way for Commerce stream, which includes nightmare subjects (for a few) like Accounts, Economics, Business Studies and Mathematics. Lets make learning, a way of life.",
Leher Consultancy                  ,N/A,N/A,Minal Residency,D/450 New Minal Jk Road,Bhopal,India,,"All Subjects, Chemistry, Biology, Mathematics, Physics, Spoken English, Effective Communication",Our centre has happened by the enthusiasm of some competent and idealist professionals who wanted to build a better future for the children of our country. With the sheer power of their endeavour we have grown to a great length within a short span of time. We have all the infrastructure necessary to build the students strength in their education and abilities to perform with excellence.,
Additive Academy                  ,N/A,N/A,Hoshangabad,"A-33, Vidhya Nagar, Hoshangabad Road",Bhopal,India,,"Accountancy, Economics, Management Subjects","We are a premier institute in teaching Accounts and Economics for class 11th and 12th CBSE, MB BOARD with expertise in each subject. Additive Aacdemy is working for the cause of quality education and producing good quality citizens for our country.",
Cmc Bhopal                  ,N/A,N/A,Professors Colony,"10, Char Bungalow Road, Civil Lines, Professors Colony",Bhopal,India,,".Net, Android Training, C, C++, CCNA Certification, Data Structures, Hardware Training, Java and J2EE, LAMP Pro Training, Multimedia, Networking, Oracle Training, PHP and MySQL, Unix/Linux","
	CMC Bhopal is a leading systems engineering and integration company in India, offering application design, development, testing services and asset-based solutions in niche segments through turnkey projects for mission critical systems. CMC was the first ever enterprise in India to set up a countrywide data network called INDONET - a computer network providing access to major cities in India, way back in 1985. It executes large and complex turnkey projects, and has built, managed and supported it’s customer's IT systems across the value chain of infrastructure, applications and business processes.",
Mahendras Jhansi                  ,N/A,N/A,Aakriti,"Top Floor, Parivar Plaza, Near Arya Kanya Inter College, Sipri Bazar, Jhansi",Bhopal,India,,"Basic Computer, MS Office, Tally ERP 9, Corporate Communication, Effective Communication, Spoken English, Interview Skills, Presentation Skills, Public Speaking, Soft Skills, GATE Exam, GRE, TOEFL, Telephonic Skills","
	To let the merit of country reach to the seats of banking and insurance sector job we provide coaching and guidance. In this sector we are the best in the region. Extremely qualified teachers and detailed study materials shall help you progress in the path of your dreams. Mahendra's Jhansi is your only destination to success.",
Mahendras Jabalpur                  ,N/A,N/A,Aakriti,"1230 Bhawani Plaza, 3rd Floor, Near 4th Brige Napier Town",Bhopal,India,,"Basic Computer, MS Office, Tally ERP 9, Corporate Communication, Effective Communication, Spoken English, Interview Skills, Presentation Skills, Public Speaking, Soft Skills, GATE Exam, GRE, TOEFL, Telephonic Skills","
	Everyone has unique educational strengths, weakness, needs and preferences. Based on our evaluation of the student's abilities coaching is provided. Weaker students are given special classes whenever required. Complete guidance is provided by us regarding the examination you aspire to appear in. Mahendras Jabalpur is your only destination to success.",
Mahendras Lalghati                  ,N/A,N/A,Lalghati,"2nd Floor, Prime Tower, 51/2, 52/2 Vijay Nagar, Bairagarh Road, Lalghati",Bhopal,India,,"Basic Computer, MS Office, Tally ERP 9, Corporate Communication, Effective Communication, Spoken English, Interview Skills, Presentation Skills, Public Speaking, Soft Skills, GATE Exam, GRE, TOEFL, Telephonic Skills","
	In this race of life we all have only one thing to achieve: success. In this path of success many hardships might come in the way, but when your aim is to compel competitive examination then we stand as the only option in your way to success. We provide a great study environment infilled with some very experienced and qualified teachers for your thorough guidance regarding the course you choose.",
The Scholars Choice                  ,N/A,N/A,Chandrasekharpur,"H I G- 35, 7 Acre, Vijay Vihar, Chandrasekharpur, Bhubaneswar - 753016",Bhubaneswar,India,,"Abacus Training, Communicative English, Handwriting, Language, Mental Maths, Olympiad Exam Preparation, Personality Development, Spell Bee Training, All Subjects, Biology, Chemistry, English, EVS, Geography, Hindi, History, Mathematics, Physics, Science, Accountancy, Algebra, Anatomy, Anthropology, ... More [+]","10 - 15 Faculties From Different Well Established Schools Like SAI, Times Scholar, KIIT  and DAV.

Here are our names of the faculty members:
Pavitra kumar Debata, Monalisa Das.",
Ramanujan Academy Of Mathematics                  ,N/A,N/A,Unit-4,"A/2, Bhouma Nagar, Unit-4, Bhubaneswar, 751001",Bhubaneswar,India,,"Algebra, Mathematics, Statistics","
	Ramanujan Academy Of Mathematics is located in the city of Bhubaneswar. We cater in mathematics and specializing in IIT. From making the student knowledgeable about the subjects and guiding them for their future.",
Vedic Tutorial                  ,N/A,N/A,V.s.s. Nagar,"AE-102, 1st Floor, VSS Nagar, Bbbsr, Odisha, 751007",Bhubaneswar,India,,Mathematics,"
	Vedic Tutorial is located in Bhubaneswar. We are helping students to build a strong knowledge base for the students for a long time. We have all the resources ready to serve the students for their best results.",
Aldine Ca                  ,N/A,N/A,Baramunda Colony,"B-238, Bda Duplex, Behind Puspa Clinic And Patra Electronics, Baramunda, Bhubaneshwar, 751003",Bhubaneswar,India,,"ACCA, CA - CPT, CA - Final, CA - IPCC, Direct Tax Laws","B-238, Bda Duplex, Behind Puspa Clinic And Patra Electronics, Baramunda, Bhubaneshwar, 751003",
Slg                  ,N/A,N/A,I R C Village,"N/4, 243
ID Market
Nayapalli",Bhubaneswar,India,,Spoken English,"
	Vcc Learn English helps the students to develop their English and helps them to do better in their professional world.",
Radiant Classes                  ,N/A,N/A,Saheed Nagar,"B-55, Opposite Of Rd Women College, Saheed Nagar, Bhubaneswar,",Bhubaneswar,India,,"CA - CPT, CA - IPCC, CS Professional, Direct Tax Laws, ICWA & ICWAI","
	Radiant Classes is an institute for students where they will get good facility and calm studying atmosphere with a very high level of teaching. We will identify the strength and weakness of each student individually for their studies. Our method of teaching is similar to home tuition where every student get individual attention .We welcome all the parents and students who are looking for good tutoring.",
Iant                  ,N/A,N/A,Master Canteen,"11 A, 2nd Floor, Master Canteen Area, Beside Hotel Keshari, Bhubaneswar, Odisha, 751001",Bhubaneswar,India,,"CCNA Certification, Cisco certification, Microsoft Certification, Oracle Certification","
	IANT Institute of Advance Network and Technology is India's No.1 IT Training Institute. IANT is a no.1 training partner of CompTIA, Redhat, and EC-Council in India. Institute of Advance Network and Technology is a prestigious premier Institute with a qualitative and quantitative career development for IT solutions. It has a broader range of career aspect for Hardware and Networking, Software, Ethical Hacking and Cyber Security courses. IANT has successfully produced IT Hardware and Networking Engineer in your city and has reached the apex of targeted aim for career growth. IANT has achieved its advancement with placement guarantee and organizational career ladder for all aspirants. There are specific career courses for best training with professional certified faculty and team of recruitment agencies. You can obtain the best quality and value based training in IT and it is path to success towards career in technology advancement. IANT has come up with Hardware and Networking, Software, Ethical Hacking and Cyber Security. This is only double ISO certified Institute in India.",
Apti Plus Academy For Civil Services                  ,N/A,N/A,Saheed Nagar,"A/8, 2nd Floor, Saheed Nagar, Bhubaneswar",Bhubaneswar,India,,"IAS Preparation, IBPS, UPSC Exam","
	Apti Plus Academy for Civil Services has undoubtedly become the best coaching institute for Civil Services in Bhubaneswar as well as Kolkata. For its success rate & systematic teaching methodology, Apti Plus is being ranked as the best coaching for Civil Services & SSC CGL coaching in Kolkata & Bhubaneswar. Apti plus was set up in 2005-2006. Since its establishment, the institute has produced number of IAS, IFS, IPS & other central/state Govt. services members.",
Interface Software Services                  ,N/A,N/A,Sahid Nagar,"#359, 2nd Floor, Sahid Nagar,Near Rupali Square,
Bhubaneswar-07, Odisha, India.",Bhubaneswar,India,,".Net, C# (C Sharp), Java and J2EE, Visual Basic","#359, 2nd Floor, Sahid Nagar,Near Rupali Square,
Bhubaneswar-07, Odisha, India.",
Saligram Educators                  ,N/A,N/A,Laxmisagar,"PLOT NO 1006 B
TRINATH MANDIR ROAD

NEAR MEDPLUS STORE
LAXMISAGAR",Bhubaneswar,India,,"All Subjects, English, Hindi, Mathematics, Social Studies","
	As an educational startup Saligram Educators is focusing on the individualized education plans for the students who are unable to understand classes in crowded environment such as school and coaching centers. We promote our self as development center for our teaching methodology and approach towards the student is different from traditional coaching centers.",
Institute Of Commerce & Professional Studies                  ,N/A,N/A,Saheed Nagar,"382, Sahid Nagar, Bhubaneswar",Bhubaneswar,India,,"CA - Final, ICWA & ICWAI","
	The only institute which teaches you with guarantee. We try to understand the requirement of each student. Once the educational needs of each student are identified, then the study pattern is planned according to their needs, within the scope of the syllabus. Learning is always suppose to be interactive and therefore, emphasis is always given on the feedback of the student regarding each topic that has been taught.",
Interface Software Services                  ,N/A,N/A,Sahid Nagar,"359, 2nd Floor, Sahid Nagar,Near Rupali Square",Bhubaneswar,India,,".Net, C, C++, Java and J2EE","
	Interface Software Services is a complete Custom Software Development and Web Design Company in Bhubaneswar, Odisha offers customer oriented high quality web designing services & deliver them effectively. Whether you are a small business or a large corporate, Interface Software Services can help you achieve a unique online presence to give cutting edge web design.",
Interface Software Service                  ,N/A,N/A,Saheed Nagar,"359, 2nd Floor, Sahid Nagar, Bhubaneswar",Bhubaneswar,India,,"Java Script, PHP and MySQL, Web CMS","
	Interface Software Service holds expertise in providing IT training services and software development solutions. Situated in Odisha, we provide intense training programs for techies to learn and enhance their skills. We are the best Source for students to develop their programming abilities in different technologies.",
5th Ace Technologies                  ,N/A,N/A,Patia Chowk,"5th Ace Technologies, Hig - 101, Kanan Vihar, Odisha, India",Bhubaneswar,India,,".Net, C# (C Sharp), Java and J2EE","
	5TH Ace Technologies distinctive fifteen-weeks internship program allows interns to gain experience in multiple development areas such as HADOOP(BIG DATA), JAVA, .NET & ORACLE 10g, while working with the Real-Time Experienced developers. During their tenure, interns will have the opportunity to work on Real-Time projects: from developing concepts and ideas to presenting a pitch and executing a final product. That is your project in hand.",
Sambhav Academy                  ,N/A,N/A,Nayapalli,"N3/409, IRC Village, Nayapalli, Bhubaneswar",Bhubaneswar,India,,All Subjects,"N3/409, IRC Village, Nayapalli, Bhubaneswar",
Institute Of Engineering & Management Studies                  ,N/A,N/A,Unit-9,"Plot No. 76, Near Kali Mandir, Satya Nagar",Bhubaneswar,India,,"English, Mathematics, Civil, Electrical, Electronics, Mechanical","

		Expert Faculty 

		Proactive Learning 

		Unique Methodology 

		Interactive approach to teaching 

		Flexible Timings 

		Affordable Fees
",
Olympiad Tutorials                  ,N/A,N/A,Irc Village,N-3 IRC Village Bhubaneswar,Bhubaneswar,India,,"All Subjects, English, EVS, Mathematics, Geography, IT & Computer Subjects, History, Social Studies","

		Committed and qualified faculty

		Detailed learning process

		Academic interactions, assessments

		Updated study material

		Parent-teacher interaction
",
Mindsight                  ,N/A,N/A,Patia Chowk,"A/ 7 ,TRISHNA ENCLACE, PATIA",Bhubaneswar,India,,"Abacus Training, Biology, Business Maths, Mathematics, Physics, All Subjects, Chemistry","
	- Demonstration

	- Mock tests

	- One to tone tutoring

	- Crash course

	- Self prepared notes",
Innodust Techsolution                  ,N/A,N/A,Sahid Nagar,"Plot No-A/65, Saheed Nagar",Bhubaneswar,India,,"Computer, Electrical, Electronics, Mechanical, Android Training, Embedded Systems, iOS Training, Robotics, .Net, C, C++, Java and J2EE, Visual Basic, Java Script, PHP and MySQL","

		Robotics

		Thermal

		Mechatronics

		3D printer

		Aerodynamics

		Embedded

		Matlab

		Solar
",
Shiksha Tutorial Point                  ,N/A,N/A,Khandagiri,"Plot No:l-7/13,panchasakha Nagar",Bhubaneswar,India,,"Chemistry, English, Mathematics, Physics, .Net, C, C++, C# (C Sharp), Java and J2EE","
	Shiksha Tutorial Point is a tutorial coaching for school students for school level and computer related segment/subjects based in the city of Bhubaneshwar. We provide (CBSE/ICSE) from class 4th -12th(all subjects) Coaching for +2 students (Mathematics,Physics,Computer) Basic computer course(C,C++,Data structure,Java,Oracle,DCA,PGDCA)",
Trytoon Academy                  ,N/A,N/A,Palasuni,"Palasuni Hat, Rasulgarh, 
Bhubaneswar",Bhubaneswar,India,,"Civil, Multimedia","

		Fashion Design

		Interior Design

		Graphic Design

		Web Design

		2D Animation

		3D Animation

		VFX composition

		Interior design certification course

		Advanced Diploma in Interior design

		Professional Diploma in Interior Design

		Professional Degree in Interior Design
",
Bsc Academy                  ,N/A,N/A,Sahid Nagar,"Sahid Nagar, Bhubaneswar",Bhubaneswar,India,,"Bank Clerical, Bank PO, PWD & CPWD, SBI Exam, Spoken English, Business English, Effective Communication, Baking, Call Center Training, Office Administration, Software Engineering","We set out with a missionary zeal with the October 1993 issue of the magazine Banking Services Chronicle. And we are proud to say that our zeal has only strengthened with more than two decades of your unstinted support. We have been bringing one product after another  correspondence course, books, classroom coaching, online and offline tests, and websites. In all these endeavours we have strived for excellence. We have perceived your needs and tried to fulfil them. If today we are established as a reputed education giver, we owe it entirely to our generations of students.",
Institute Of Digital Media Technology                  ,N/A,N/A,Sahid Nagar,"Plot No: A/155, Flat-A, 4th Floor, RK Enclave, Saheed Nagar, Bhubaneswar",Bhubaneswar,India,,"Animation, Multimedia, Photoshop, Web Designing, Anchoring & News Reading, BPO Training, Call Center Training, Office Administration, Digital Marketing","
	Knowledge is emerging as the most powerful platform to progress in this “boundary-less” world. Media and Entertainment are the most emerging and fastest growing industries in India. The whole world is now dependent on India for the highly skilled manpower available in Media and Entertainment industry. To aid further growth of these industries, it is extremely important that formal and professional level job-oriented, industry-based training programs are introduced at all levels. Mainstream educational institutes and universities cannot conduct such programs with their limited and traditional resources to teach students on Creativity, Imagination and Innovation.",
Vidyarthee Institute For Technological Studies                  ,N/A,N/A,Utkal University,"Balakati, Near Uttara",Bhubaneswar,India,,"Civil, Electrical, Electronics, Mechanical, AutoCAD  Training, B.Tech Tuition",Vidyarthee Institute For Technological Studies at Bhubaneswar is a bug name in the field of Technology training. We have designed the programmes with all the requisite features that enhances the students career development.,
Gyandeep                  ,N/A,N/A,Unit-9,"Plot 171 - Bayababa Matha Lane, Near Bda Nicco Park,unit 9, Bhubaneswar",Bhubaneswar,India,,"All Subjects, Chemistry, English, Mathematics, Physics, Corporate Communication, Effective Communication, Spoken English","
	Delivering Knowledge is a sacred motto of ours and we it's our vision to help the society by providing quality education. Gyandeep is a reputed coaching center based in the city of Bhubaneshwar for school level segment/subjects. ",
Auroin India                  ,N/A,N/A,Mancheswar,"Mancheswar,",Bhubaneswar,India,,Digital Marketing,"AuroIn is a digital marketing company based in Bhubaneswar with headquarter at Florida, Miami. Digital marketing has huge potential for growth and skilled professionals are in great demand. We have developed our programme alligning with the norms of bets practices maintained all over the world. Join our programmes and get trained by the very bests.",
Ca Radiant                  ,N/A,N/A,Sahid Nagar,B-55 Sahid Nagar,Bhubaneswar,India,,"Accountancy, Commerce Subjects, Business Organisation, Business Studies, Costing, CA - CPT, CA - IPCC, CS - Executive, CS - Foundation, CS Professional","Radiant is a renowned coaching centre for CA, CS training programmes. Our classes are designed with the requisite features following the best practice. We have well trained and experienced faculties to teach students as per their abilities and bring out their best  potential to crack the examinations and build a build a good foundation of knowledge.",
Ifind Tutorials                  ,N/A,N/A,Kiit University,KIIT University,Bhubaneswar,India,,"3D Animation, 3D Max / Maya, Advanced Excel, Hardware Training, Computer, Electronics, IT, Typing & Shorthand, B.Tech Tuition, M.Tech Tuition","We have the following facilities :
1. We teach students 24*7.
2. We are always there to help students in finding solutions to their queries.
3. We can be reached directly.
These three features at the cheapest market price can\'t be offered at any other place than Ifind Tutorials.",
Lets Talk                  ,N/A,N/A,Mohali,"Scf 69, Phase 3b2, Second Floor, Above Hdfc Bank, Mohali",Chandigarh,India,,"Business English, Corporate Communication, Effective Communication, IELTS, Public Speaking, Spoken English, TOEFL, English, French","
	Let's Talk Institute Pvt Ltd is Mumbai's premier academy for teaching Communicative Language Courses & Finishing skills. With a mission to break down barriers in language & career, Let’s Talk has helped people of all ages and nationalities become citizens of the world. To date, Let’s talk has trained more than 1,50,000 people speak English fluently and this has been successfully accomplished at Let's Talk, owing to its simple and comprehensive course materials and specially trained faculty.",
Schoolpage Tutorials                  ,N/A,N/A,Dera Bassi,"Chandigarh 
160017",Chandigarh,India,,"Chemistry, English, Mathematics, Physics, IELTS, Spoken English, TOEFL, French, German, Hindi, Punjabi","School Page Lucknow is the outcome of a long quest to combine the latest in pedagogy, through its unique e-Tutoring (STS) methodology, with the best in technology, which makes it available to students from all over the world. While there are large numbers of great teachers available throughout the world, great teaching and great tutoring are very different in many ways and require very different approaches. There are many differences between classroom teaching and off-school tutoring methodologies. With this in mind, the School Page team worked with other global academics to create the unique School Page e-Tutoring System (the STS), which is based on Richard E. Mayers Cognitive Theory of Multimedia learning.

The STS is a highly structured academic system. Through the use of a 9-stage lesson organizational structure, STS is used in every SchoolPage session ensuring better engagement, superior retention and rapid results. STS includes the use of cognitive tools such as Mind Mapping, self-diagnosis tools such as Comfort Boxes and learning outcomes that are highly student-centric.",
S. K. Institute Of Physics                  ,N/A,N/A,Bus Stand,"1420, D2, Munda Majra, Yamunanagar, Chandigarh, 135001",Chandigarh,India,,"Physics, IIT JAM, IIT JEE Advanced, IIT JEE Mains","
	S. K. Institute of Physics is providing quality education of the students of Yamunanagar, Chandigarh. Apart form making the students expert in Physics, we also cater in IIT-JEE examination preparation.",
Destination Admission                  ,N/A,N/A,Mohali Phase 1,"S C F 41, Sahibzada Ajit Singh Nagar, Phase 2, Sector 54",Chandigarh,India,,"ACCA, CA - CPT, CA - Final, CA - IPCC, CFA, CFP, CIMA Certification, CMA Final, CMA Foundation, CMA Intermediate, CMA-CPA-ACCA-CIMA, CPFA, CS - Executive, CS - Foundation, CS Professional, Direct Tax Laws, ICWA & ICWAI, Accountancy, Algebra, Anatomy, Anthropology, Arts Group, Bengali, Bio Technology... More [+]","
	Destination Admission is an one stop destination for all your educational needs. Be it Engineering, Management, Medical, Non-Medical, Arts, Commerce, Industrial Training, Studies Abroad, Entrance tests, Recruitment tests (Govt. or Corporate) Destination Admission Aims at the students/education-seekers in almost every field beginning from standard 8th and onward (Technical/ Non-Technical) pan India and Abroad, also their career development. Right from the first step to the final one, Destination Admission Gives complete support to the students. We provide all the information related to your goals and how to achieve them, when and how to take the first step that will further lead you to the final destination, is the foremost task of Destination Admission. We work in the area of core education. For a specific educational need, specific skills are required, which is tested by the Testing bodies at All India Level (AIPMT, AIEEE, AIMA, CAT, MAT etc.) and also by individual Colleges (CMC, PGI, AIMS, IIT, FMS, St. Xavior, SP Jain etc.) Destination Admission provides a number of services( Online, class room training) to crack these exams. Destination Admission is very well aware of the present education/industry scenario, Lots of courses, institutes/colleges and career options make the educational (life) environment very tough and complex for students and parents as well.",
Gyan Sagar Institute                  ,N/A,N/A,Sector 30,"Sco:118-120, 3rd Floor, Sec-34 A, Chandigarh, 160022",Chandigarh,India,,"CS - Foundation, CA - CPT, CA - IPCC, Physics, Geography, Economics, Commerce Subjects, Business Organisation, Biology, Arts Group, Algebra, Statistics, Political Science, History, English, Chemistry, Business Maths, Accountancy, Sociology, Mathematics, Education, SSC Exams, SBI Exam, IBPS, CTET, Ba... More [+]","
	Gyan Sagar Institute provides the candidates with such guidance so that they can deal with the hurdles of various competitive examinations. The faculties are well qualified, highly instructive and interactive. They try to equip the students with ability and skill so that the candidates can overcome all the difficulties to get a job. They cover all the syllabus in time. We also provide study materials which are unique, simple and helpful. We take regular mock test to prepare the students for the final. A large number of students are aspiring for various government jobs. We provide excellent coaching for NDA, CDS, SSC, CLAT, CA-CPT CTET,HTET,PSTET and Hotel Management And Chandigarh Police.Our guidance helps our students to prepare in the right way and get success. Commitment, Good Results, Creativity and Superiority are primary focuses of Gyan Sagar Institute Institute. And we all in Gyan Sagar Institute make an effort to work in the field of functionality to highlighting the target using candidate that brings together with us.",
Linguasoft Edutech Pvt Ltd                  ,N/A,N/A,Sector 30,"S C O 83-84, Level-1, Sector 34- A, Chandigarh, India",Chandigarh,India,,"Business English, Corporate Communication, IELTS, Spoken English, TOEFL, OET, PTE","
	LinguaSoft Edutech Private Limited is a leading institute, situated in Chandigarh offering result oriented language Skills development courses. Our highly skilled and experienced professionals work beyond the horizons of time. We offer the best class training, material and exposure. Our wide range of services includes preparation for exams like IELTS, PTE and TOEFL. We also offer language skills development courses like Spoken English and Office Communication. Our commitment to quality, placing our students in reputed colleges and providing them intense training always has been our biggest strengths and makes us better than the other institutes of our kind.",
Lis International Coaching And Corporate Training                  ,N/A,N/A,Mohali Phase 2,"S.c.o 32 1st Floor, Mohali Phase 2, Chandigarh, 160002",Chandigarh,India,,"Business English, Effective Communication, Spoken English","S.c.o 32 1st Floor, Mohali Phase 2, Chandigarh, 160002",
Rk's It Aarena                  ,N/A,N/A,Bus Stand,"#2205, Pepsu Society, Sector 50c, Chandigarh",Chandigarh,India,,"Flash, Graphic Designing, HTML Training, Photoshop, Web Designing","We are looking to build upon some terrific strengths; a respected brand, a strong position in our core markets and most important of all; talented, motivated and well trained employees. People with real passion, energy and enthusiasm - whose potential we aim to fulfil.",
Ibts                  ,N/A,N/A,Sector 34,"SCO 94-95, III Floor,Sector 34 A, INDIA",Chandigarh,India,,"Biology, Chemistry, English, Mathematics, Physics","
	IBTS is The Best / Proven No.1 Institute For Academic and Competitive Exams from Last 10 years. - We are a reputed coaching center based in the city of Chandigarh working for school level and college level students. - Our classes are designed to build the students strength in a way that they are able to gain interest in their studies and are able to perform well in the examinations as well. - We also provide preparatory programmes for Bank PO, Clerical entrance exams preparation. - We Offer Free Counseling To Our Students so that they can know which path they should go For Better Future. - We are providing 100% result oriented coaching with full length exhaustive study material. - Our Comprehensive, Dedicated, Well Managed & High Quality Coaching helps you to Crack the Exam.",
Score High                  ,N/A,N/A,Mohali Phase 7,"Mohali Phase 7, Chandigarh, 160062",Chandigarh,India,,"IELTS, Study in Australia, Study in Canada, Study in New Zealand, Study in USA","
	Our core services include Career Counseling, Training, Admission counseling for International Universities, Visa Counseling for major destinations. We also offer consulting services to both International and Indian Universities and Institutions.",
English Language Centre                  ,N/A,N/A,Mohali Phase 7,"Ph 7 Sco 42 Mohali, Mohali Phase 7, Chandigarh",Chandigarh,India,,"IELTS, Spoken English, English","
	English Language Center helps the students to develop their English and helps them to do better in their professional world.",
Kps Ielts Institute                  ,N/A,N/A,Sector 34,"34 A, Sco 210-211, 2nd Floor, Sector 34, Chandigarh, 160022",Chandigarh,India,,"Business English, Effective Communication, IELTS, Spoken English, TOEFL","
	We as an institute provide IELTS from reading to writing, speaking to listening to spoken English and Personality Development Coaching, we make sure your all needs are met efficiently. Also get you the desirable results to achieve your dreams.",
Engineers Career Group                  ,N/A,N/A,Sector 34,"Sco 80-81-82, 3rd & 4th Floor, Sector 34 A,",Chandigarh,India,,UGC Net,"Sco 80-81-82, 3rd & 4th Floor, Sector 34 A,",
Shine Education Academy                  ,N/A,N/A,Dera Bassi,"SCO 5-6, College Road, Shakti Nagar, Near Appollo Diagnostics, Dera Bassi, Mohali.",Chandigarh,India,,SSC Exams,"
	Shine Education Academy is a highly regarded coaching and training center located in the city of Chandigarh specializing in all competitive examinations and co related segment and subjects.",
Spring-up Institute                  ,N/A,N/A,Manimajra,"Spring Up Institute
Shop 2238/86-B,
Opposite Dispensary, 
Cat 3, Modern Housing Complex,
Manimajra, Chandigarh",Chandigarh,India,,"Biology, Chemistry, Physics","Spring Up Institute
Shop 2238/86-B,
Opposite Dispensary, 
Cat 3, Modern Housing Complex,
Manimajra, Chandigarh",
Aspire Tutors                  ,N/A,N/A,Sector 14,"Sector 14,panjab University Chandigarh",Chandigarh,India,,"All Subjects, Chemistry, Geography, NTSE","
	Tutors which provide education with quality. Young and experienced minds to teach your child. why aspire tutors?? 1:Tutor of your own choice. 2:Well prepared study notes. 3:Test series. 4:You can change a tutor within a week of his/her joining. 5:Aspire scholarship program. Become a part of aspire family and let us to teach your child the way your child wants.Get registered yourself soon.",
Sigma Achievers                  ,N/A,N/A,Sector 21,"2271, 21 C, Chandigarh",Chandigarh,India,,Mathematics,"2271, 21 C, Chandigarh",
Seoraisers | It Industrial Training Chandigarh                  ,N/A,N/A,Mohali Phase 11,"SCF 10, Top Floor, Sector 65, Mohali, 160062",Chandigarh,India,,"Java Script, Magento Training, PHP and MySQL, Wordpress Training","
	SEO RAISERS is one of India's leading innovation companies in the IT Domain. As an India based IT solution company, we are providing fully integrated multidisciplinary IT services to the global clientele with our head office at Sector 65 Mohali. We are offering a comprehensive six months training program that helps bring consistently high quality of learning for students. The deeply researched teaching methodology helps create enriching transactions that generate the right knowledge levels in students and also makes them company ready.",
Chandigarh Institute Of Competitions                  ,N/A,N/A,Sector 44,"SCO 260, Sector 44C, Chandigarh",Chandigarh,India,,"Biology, Chemistry, Commerce Subjects, Mathematics, Physics","
	As an institute Chandigarh Institute of Competitions does more than just coaching. We provide one-on-one mentoring, academic workshops, mental maths workshops, skill based workshops on theater, personality and interpersonal skills. We believe that learning should be intuitive an not forced, students should enjoy what they are learning, and should look to become successful personalities than just robotic school pass-out/graduates.",
Snm Ias Academy                  ,N/A,N/A,Sector 37,"Sco - 377, Sector 37 D,",Chandigarh,India,,"IAS Preparation, UPSC Exam","
	SNM IAS Academy is the fastest growing educational institute in the tricity. The growing popularity of the institute is attributed to its commitment towards achieving & maintaining highest standards of quality in education. The sole motto of the zealous & passionate teachers in the institute is to empower students through knowledge.",
Statesman Academy                  ,N/A,N/A,Sector 34,"SCO 54, 55, 2nd Floor, Sector 34A",Chandigarh,India,,"SSC Exams, CTET, Bank Clerical, Defence Exams, Bank PO","SCO 54, 55, 2nd Floor, Sector 34A",
Eduzphere: Gate Coaching Institute                  ,N/A,N/A,Sector 46,"SCO-66 1st Floor & 2nd Floor, Sector-46C Chandigarh",Chandigarh,India,,Civil,"We not only prepare you for coaching at the same time provides you career guidance and placement opportunities. Besides this in our class room program we provide you objective, subjective study material and we also have our own online test series. ",
Windowit | Six Months Industrial Training In Chandigarh                  ,N/A,N/A,Mohali Phase 11,"Scf - 51 , Top Floor, Phase 11, Mohali,",Chandigarh,India,,"Joomla Training, Magento Training, PHP and MySQL, Web CMS, Wordpress Training","
	Windowit Chandigarh based leading IT institute, provide six months industrial training to B.Tech and MCA Students, which is a part of their graduate degree of recognized universities. Most students waste their precious time meant to get hand on experience on the latest technologies either joining training institutes or non-software development companies. Before joining six months industrial training with any company.",
The Mount College Of Competitions                  ,N/A,N/A,St.thomas Mount,"No 4/1-1 Ground Floor, Adjacent To CSI Wesley Church, Butt RD, ST Thomas Mount",Chandigarh,India,,"Interview Skills, Presentation Skills, Public Speaking, Soft Skills, Spoken English, IELTS, TOEFL, GATE Exam, GRE","
	The Mount College of Competitions is a secular, self governing institution committed to the highest standards of education for men and women from all backgrounds. We offer affordable training programs for all several competitive examinations. Regular and weekend coaching programs are available for aspirants to various vocations. The primary objective of our institute is to pursue excellence in education. We aim at acquiring a talented faculty and providing an environment conducive to enhance the teaching learning process. We educate our students by confronting them with facts, real-life problems and situations. We make an honest attempt at inculcating in them a problem-solving approach. We offer a framework for helping the participants develop their personal and organizational skills, knowledge, and abilities. We further aim at enhancing the employability of the participants by training them on various skills. Our program aims at enriching Communication Skills, Interpersonal Skills, Team Skills, Motivation and Leadership Skills of the participants. We at the Mount College lay emphasis on the training of the mind rather than stuffing it with an inert body of facts.",
Engineerzphere                  ,N/A,N/A,Sector 34,"SCO-100-101, 3rd Floor, Sector-34 A, Chandigarh",Chandigarh,India,,"Computer, Electrical, Electronics, IT, Mechanical","
	At Engineerzsphere, our motto is to explore the proficiency and technical skills of a candidate. Our experts at Engineerzsphere provide counseling sessions to select the careers which better suits the caliber, aptitude and personality of the candidate. Our coaching panel comprises of experts from various fields to assess technical skills, behavior and attitude, personality and we conduct regular sessions to overcome the weakness in all aspects.",
Networth It Solutions                  ,N/A,N/A,Sector 34,"SCO 85-86, Second Floor, Sector 34 A",Chandigarh,India,,"IELTS, Spoken English, Public Speaking, Corporate Communication","
	Dolphin Head Hunters, is ranked Best Recruitment Company of Chandigarh for catering together various IT and NON-IT employers and candidates looking for jobs. Other than Placements. Since inception in 2009, Dolphin Head Hunters had been in the right vision and mission to bridge the gap between technology and minds. The people who are unable to clear the interviews due to some problems in presentations, we provide them Best coaching for spoken English and personality development in Chandigarh and nearby areas so they can reach the goal where they actually want to be. Our IT Staffing Services focusing on the growing needs of recruiting skilled IT professionals including Web Developers, Web Designers, SEO, Software Engineers, DBA, Network Engineers etc. To enhance support to IT clients. Our HR consultation helps IT companies in designing HR policy.",
Institute Of Commerce                  ,N/A,N/A,Mohali,"HNO 3542 , SECTOR 71",Chandigarh,India,,"Accountancy, B.Com Tuition, BA Tuition, Direct Tax","
	Institute of Commerce aims at not only the attainment of intellectual excellence and imparting of skills but also intends to stress primacy of moral, spiritual and ethical values in the integrated development of human beings with a view to create good citizens of character and ability, committed to the service of their fellowmen.",
Lyons Technologies                  ,N/A,N/A,Sector 9,"Plot Number: 389,",Chandigarh,India,,".Net, Basic Computer, Project Management","Commenced few years back, Lyons Technologies offers impeccable and prominent importance to quality education and training programs. We truly acknowledge that the aspiring students have natural hunger and craving for shaping their future. Almost all of the top leading companies of Chandigarh and Mohali rely on our training programs.",
Ganesh Institute Of Engineering                  ,N/A,N/A,Adambakkam,"55, Goods Shed Road, Near St Thomas Railway Station, Adambakkam, Chennai, Tamil Nadu 600088",Chennai,India,,"AMIE, Chemistry, GATE Exam, IIT JAM, IIT JEE Advanced, IIT JEE Mains, Mathematics, Physics, Civil, Electrical, Electronics, Mechanical","55, Goods Shed Road, Near St Thomas Railway Station, Adambakkam, Chennai, Tamil Nadu 600088",
Schoolpage Tutorials                  ,N/A,N/A,Adyar,"Chennai 
600003",Chennai,India,,"Chemistry, English, Mathematics, Physics, French, German, Hindi, Spanish","
	School Page is the outcome of a long quest to combine the latest in pedagogy, through its unique e-Tutoring (STS) methodology, with the best in technology, which makes it available to students from all over the world.While there are large numbers of great teachers available throughout the world, great teaching and great tutoring are very different in many ways and require very different approaches. There are also many differences between classroom teaching and off-school tutoring methodologies. With this in mind, the SchoolPage team worked with other global academics to create the unique SchoolPage e-Tutoring System (the STS), which is based on Richard E. Mayer’s ‘Cognitive Theory of Multimedia Learning’. The STS is a highly structured academic system. Through the use of a 9-stage lesson organizational structure, STS is used in every SchoolPage session ensuring better engagement, superior retention and rapid results. STS includes the use of cognitive tools such as Mind Mapping, self-diagnosis tools such as Comfort Boxes, and Learning Outcomes that are highly student centric.",
Galvanize Test Prep                  ,N/A,N/A,Nandanam,"Navin's Triumph, 802 & 804, Anna Salai, Nandanam, Chennai - 600 035",Chennai,India,,"ACT Exam, FMS, GMAT, GRE, IELTS, NBDE, NCLEX, OET, PSAT, PTE, SAT, Study in Australia, Study in Canada, Study in China, Study in Dubai, Study in Europe, Study in France, Study in Germany, Study in Ireland, Study in New Zealand, Study in Norway, Study in Singapore, Study in Switzerland, Study in UK, ... More [+]",Galvanize Test Prep delivers guaranteed score boosts for competitive exams through our unique Personalized Coaching system. We currently offer comprehensive test prep courses as well as free resources for GRE test takers.,
T.i.m.e. Tuitions                  ,N/A,N/A,Tiruvallur,"Golden Colony,
Door No: 1408,1st Main, 4th Cross,
Golden Flats Bus Stop,
Opp. DAV Girls School,
Thirumangalam - Ambattur Main Road,
Anna Nagar West Extension,
Chennai - 600050",Chennai,India,,"Biology, Chemistry, Mathematics, Physics, Zoology","Golden Colony,
Door No: 1408,1st Main, 4th Cross,
Golden Flats Bus Stop,
Opp. DAV Girls School,
Thirumangalam - Ambattur Main Road,
Anna Nagar West Extension,
Chennai - 600050",
Sineru Professional Development Academy                  ,N/A,N/A,Velachery,"Door No. 9, Plot No. 74, 2nd Main Road, Vijayanagar, Ram Nagar North Extn",Chennai,India,,"Accountancy, Arts Group, Business Organisation, Business Studies, Commerce Subjects, Costing, Economics, Statistics, Hindi, Auditing, B.Com Tuition, BA Tuition, Banking & Finance, BBA Tuition, BCA Tuition, Business Maths, Direct Tax, Financial Management, Indirect Tax, Mathematics, BBA Entrance","Sineru is a talent development initiative for budding Chartered Accountants that encompasses the very fundamentals of employability skills through coaching, training and soft skill enhancement. Here the faculties are academicians and qualified professionals with extensive experience in industry and practicing world. They have been training and coaching students in their individual capacity and have come together under this banner. They bring in rich experience of being involved in training leaders in corporate. Their stream of coaching focuses more on concepts and logical thinking techniques and not problem solving.",
Techno School For Robotics                  ,N/A,N/A,Madipakkam,"No. 20/8, 1st Floor, Kannan Nagar, 3rd Main Road, Madipakkam, Chennai",Chennai,India,,"Robotics, Summer Camps","
	Techno School for Robotics is an initiative of Future Mindz Technology Solutions. We are an esteemed educational institutions for Robotics. We understand the requirement and gap of students today in their bid to be competitive with their counterparts across the world's robotics education. We work with the missions to initiate students from KG to PG to improve their Analytical thinking , Critical thinking, logical thinking, problem solving, reasoning capabilities, attitude to learning and to know new technologies.",
Sangeetha Kalalayaa                  ,N/A,N/A,Perungudi,"No : 29, 3rd Cross Street,
Tirumalai Nagar, Perungudi,
Chennai",Chennai,India,,Summer Camps,"
	Sangeetha Kalalayaa was established with the prime vision of providing quality dance education and training with high class professional infrastructure at affordable prices. Through our committed approach, today we stand as a synonym for high quality dance education and musical training programs. We offer various music learning courses in Keyboard, voice lessons, violin lessons, Tabla lessons and several other instruments.",
Think Diff Skool                  ,N/A,N/A,K K Nagar,"450/1, Lakshmanaswamy Salai, 
K K Nagar",Chennai,India,,Summer Camps,"
	Think Diff S’kool is a unique educational institute which works with the prime objective to nurture children's sense of wonder and excitement about STEM (Science, Technology, Engineering and Math). Through our hands-on activities we unlock their imagination. We spark children's innate curiosity and creativity and tend to inspire them to think, design and create.",
Mirage Film Institute                  ,N/A,N/A,T. Nagar,"8, Balaji Avenue, 1st Street, T. Nagar, Chennai",Chennai,India,,Summer Camps,"
	is an institute offering various training programs in the art of Film making and Photography. We offer both regular and part time classes. Apart from the normal regular courses we also conduct intensive weekend workshops on Film making and Photography. We organize and conduct special film making and photography workshops for students at various colleges.",
Robotix                  ,N/A,N/A,Adyar,"New No 9, Old No 5, 1st Cross Street, Karpagam Gardens, Adyar,
Chennai",Chennai,India,,Summer Camps,"
	Robotix offers robotics education programmes specially designed for young children. We follow a customized curriculum with innovative robotic technology. We also conduct various robotics competitions which are specially developed to inspire young innovators. All our programmes provide children a fun, hands-on learning experience that helps develop important 21st century skills.",
Techknowledge                  ,N/A,N/A,Alwarthirunagar,"No. 51, I I Floor, 9th Main Road, Dhandeeswaram Nagar, Velachery",Chennai,India,,Summer Camps,"
	Techknowledge is a pioneer in the field of robotics training for school students. Our special stem based based robotics learning system make learning science interesting and fun filled. We follow a concept based learning system which helps students to understand scientific concepts as they build robot models.",
Bay Of Life                  ,N/A,N/A,Kancheepuram,"# 14/19, Carmel Nagar, Kovalam,
East Coast Road (Near Taj Vivanta Fisherman’s Cove),
Chennai",Chennai,India,,Summer Camps,"
	Bay of Life Surf School is the first accredited surf school based in Chennai, Tamil Nadu. Our prime objective is to make the adventure of surfing in India easy and enjoyable. So we go beyond the adventure tag in Chennai and have made surfing a sport for the curious. Knowledge is our main strength which helps us in making learning with us a safe and genuinely fun experience. Having created many national champions and thousand of ocean lovers, Bay of Life is creating positive changes in the Indian surf scene. Our team also entered the Limca book of records for paddling 10 kms out to sea, the first ones to attempt such a feat in India. If you are surfing in India or looking forward to surfing in India, or looking to try new adventure activities in Chennai, including sea swimming, stand up paddling, surfing in Chennai, we are the right place.",
Sporty Beans                  ,N/A,N/A,Mylapore,"No.10 & 11, Dr.radhakrishnan Salai, Mylapore, Near Kalyani Hospital",Chennai,India,,Summer Camps,"
	Sporty Beans is a renowned educational organization conducting various sports, educational and academic enrichment program and workshops for young children. The classes are designed in the most unique manner which ensures the overall development of the students. The sessions are all conducted by well trained staffs who are committed to bring the best in every child.",
The Speech And Writing Club                  ,N/A,N/A,Nungambakkam,"No. 19 Nungam Bakkam High Road, Anugraha Appts 4-B
Chennai",Chennai,India,,Summer Camps,"
	The Speech and Writing Club was established with the sole purpose of providing quality education to young children. We follow an innovative approach of training where the children are exposed to various fun and interactive exercises and activities which not only improve their speech and writing skills but also contribute a lot to their overall personality development.",
Inaword                  ,N/A,N/A,Adyar,"No. 26, (Old No. 60), Teachers’ Colony, Kasturba Nagar",Chennai,India,,Summer Camps,"
	Inaword was started by a a foreign language professional. We are currently based at Kasturba Nagar in Adyar, Chennai. We started with French and German language training and gradually added Spanish, Japanese, Chinese and English speaking courses as well. All the teaching members of our academy are highly qualified and well versed with the methodologies that enable high quality learning.",
Kalaa Manjari                  ,N/A,N/A,Kumaran Nagar,"6/12, First Street,Venus Colony, 
Alwarpet, Chennai",Chennai,India,,Summer Camps,"
	Kalaa Manjari is well reputed educational center for Art and culture activities and training. We offer various classes and programs for children in a single premise. We offer courses in Art classes, Carnatic Vocal, Keyboard, Chess, Bharathanatyam, English and many more. All our sessions are conducted by well experienced trainers. We are currently planning to introduce many innovative and unique classes which will felicitate an overall personality enhancement.",
Arobot                  ,N/A,N/A,Adambakkam,"No. 48A , Vellalar 
Street, Adambakkam,Near 
St. Thomas Mount Railway
Station, Chennai",Chennai,India,,Summer Camps,"
	Arobot is a design consultancy & Solutions provider for the Industry Automation, Academics and Application company. Our objective is to address the requirements of small and medium scale enterprises, research scholars and engineering students in the field of Automation, Robotics and Embedded Systems. We offer turn-key process optimisation solutions for manufacturing industries backed by an enthused team of young and dynamic engineers committed to address customer needs.",
Aavishkaar India                  ,N/A,N/A,Mylapore,"No. 34, 2nd Main Road, CIT Colony, Mylapore, Chennai",Chennai,India,,Summer Camps,"
	Aavishkaar India mainly specializes in conducting camping and corporate events. In our camping programs children engage in different activities like trekking, rappelling, rock climbing, rope activities apart from learning about the flora and fauna of the location.",
Digiterati                  ,N/A,N/A,Adyar,"85, First Main Road, Gandhi Nagar, Adyar, Chennai, 600020",Chennai,India,,"Salesforce CRM, SAP Training, MS Office, Microsoft Certification, Computer Science, IT, Big Data & Hadoop, Cloud Computing, Data Structures, DBMS & RDBMS, MongoDB, Oracle Training, PL/SQL, .Net, C, C++, C# (C Sharp), Java and J2EE, Perl Programming, Python Programming, Shell Scripting, Visual Basic,... More [+]","
	Digiterati was started in 1991 as India’s first IT Finishing School for Information Technology at Chennai. Digiterati is Chennai’s largest corporate training centre with a unique distinction of training more than 1500 graduates on a single day simultaneously for India’s top IT companies, like HCL TCS CTS Scope International Wipro Tech Mahindra Ford etc.",
Rj Womens Educational Centre                  ,N/A,N/A,Chromepet,"No:34/63,kamarajar High Road,New Perungalthur, Chennai",Chennai,India,,"IT, Computer, Ruby on Rails, PHP and MySQL, Joomla Training, Drupal, Java Script, AJAX Training, DBMS & RDBMS, Oracle Training, Data Structures, Mathematics, IT & Computer Subjects, Computer Science, School level computer, M.Sc Tuition, B.Sc Tuition, BCA Tuition, M.Tech Tuition, B.Tech Tuition, Visu... More [+]","No:34/63,kamarajar High Road,New Perungalthur, Chennai",
Prisci Educational Academy                  ,N/A,N/A,Ashok Nagar,"2, Ganapathy Koil Street, Kamarajar Nagar Main Road, Avadi, Chennai, 600071",Chennai,India,,"Mechanical, Mathematics, Computer, Management Subjects, Algebra, Statistics, Computer Science","
	In Prisci Educational Academy we handle subjects with experienced faculty. Handling classes for engineering and diploma and school any board specialized in mathematics.",
Campus Crush Techno Schools                  ,N/A,N/A,Chitlappakkam,"No.17, Shanthi Nagar, 2nd Cross Street, Chrompet",Chennai,India,,"Advanced Excel, Basic Computer, Computer for official job, MS Office, School level computer, 2D Animation, 3D Animation, 3D Max / Maya, 3D Printing, Adobe Tools, Animation, Ansys, AutoCAD  Training, Corel Draw, CSS Training, Dreamweaver, DTP, Flash, Games Development, Graphic Designing, HTML Trainin... More [+]","
	We are a specialised Training and Placement Organization based in the Southern part of Chennai, Chromepet. We are highly customised training programs, seminars and workshops. All the sessions are conducted by knowledgeable professionals. All our courses are bound to be certified by Tamil Nadu Computer Education. Our institute provides opportunities for you to put your skills into practice and to experience a real professional environment. We teach students how to more accurately and thoroughly perform their technical components in various domains.",
Carlagan Academy                  ,N/A,N/A,Anna Nagar,"Flat 403, Greenwoods, 23, 21st Main Road, 
Anna Nagar, Chennai, 600040",Chennai,India,,French,"
	Carlagan Academy is an institute of French language with extensive experience in training students and professionals. We conduct language training and cross-cultural training for corporates as well as mainstream classes",
Skywayacademy                  ,N/A,N/A,Chromepet,"No.187 Shanthi Nagar 2nd Cross Street.
Chromepet Chennai-600044.
No.45 Madley Road T.nagar Chennai.",Chennai,India,,"Chemistry, English, Mathematics, Physics, Chemical, Civil, Computer, Drawing, Electrical, Electronics, IT, Mechanical, Production, Business English, Corporate Communication, Effective Communication, Spoken English","
	We are providing coaching classes for Engineering classes, Spoken English and school level education in the city of Chennai.",
Dynamic Tution Center                  ,N/A,N/A,Ponniammanmedu,"55/4 F1, Raji Flat, Ring Road, Devagi NagarPonniammanmedu, Chennai, 600110",Chennai,India,,Mathematics,"
	Dynamic Tution Center is located in Ponniammanmedu, Chennai. As an institute we cater in school level education. We have specialized faculties for every subjects and during you are going to be guided through regular examinations and mock test.",
Koushy Academy                  ,N/A,N/A,Villivakkam,"Koushy Academy, 38, Station Road, Villivakkam, Chennai-49",Chennai,India,,"Accountancy, Chemistry, English, Mathematics, Physics, IELTS, Spoken English, TOEFL, Aerobics, Meditation, Yoga, Zumba, Fashion Designing, Jewellery Design, Model Making, Tailoring & Knitting","
	Koushy Academy is located in Villivakkam, Chennai. We synonym with quality education has brought a paradigm shift in the education sector of India. We have innovated new educational methodology and demonstrated extraordinary results in all targeted segments. Our every centre has same curriculum, same teaching methodology, same study material, same working system, same testing & monitoring mechanism followed.",
Master Key                  ,N/A,N/A,Korattur,"No. 42, Time Kids, Thiru Vi Ka Street, Thenpazhani Nagar, Korattur, Chennai, 600099",Chennai,India,,"Accountancy, Biology, Botany, Business Maths, Business Organisation, Business Studies, Chemistry, Commerce Subjects, Costing, Mathematics, Physics, All Subjects, English, Geography, History, AIEEE, CET, GATE Exam, IIT JEE Mains, Spoken English, French, Hindi, AICEE, AIPMT, Medical Entrance Exams","
	We aim to provide the best coaching classes (academic, entrance exams and personality development). We are based in Kolathur, Chennai, Tamil Nadu. We have faculty from reputed universities of Tamil Nadu who are constantly providing excellent results. We are dedicated to give quality education to every student. The teachers provide knowledge-oriented classes and we believe that knowledge is the ""Master-Key"" to all the locks of the world.",
Vetrii Ias Academy                  ,N/A,N/A,Anna Nagar,"Vetrii IAS Academy, 
Muthiah Hall , 
Old No.52, New No.1, 9th Street, 
F Block, 1st Avenue Main Road,",Chennai,India,,"CSAT, IAS Preparation, Police Department Exam, TNPSC, UPSC Exam","
Vetrii is a committed team of faculty who have been involved in civil service preparation for the past twelve years and have been instrumental for the success of many candidates in their Civil Service Exam preparation.
No. 1 institute in terms of core team of committed and experienced faculty.
Clear success Mantra with effective study practices.
Quality & Timely coverage of Entire Syllabus.
Regular test series programme for both Prelims and Main Exams.
Effective routine Answer Writing Programme.
To provide effective guidance for Civil Service Aspirants.
Our UPSC Interview Panel Comprises of both Retired and Serving IAS, IPS, IFS, IRS & Vice chancellors of various Universities.
Air conditioned class rooms facilitated with latest Audio - Visual systems.
",
Gradvalley                  ,N/A,N/A,Nehru Nagar West,"177/1A Annamalai Industrial Park
Sitra Kalapatti Toad
Kalapatti,",Coimbatore,India,,"ACCA, CA - CPT, CA - Final, CA - IPCC, CFA, CFP, CIMA Certification, CMA Final, CMA Foundation, CMA Intermediate, CMA-CPA-ACCA-CIMA, CPFA, CS - Executive, CS - Foundation, CS Professional, Direct Tax Laws, ICWA & ICWAI, Accountancy, B.Com Tuition, Banking & Finance, Business Maths, Costing, Direct T... More [+]","

		Experiential and networked learning. 

		Committing to a set of core soft skills. 

		Offering high quality, relevant programs and pathways. 

		Committing to teaching excellence. 

		Advancing partnerships, applied research and outreach opportunities. 

		Clearly defined and efficient pathways. 

		Coordinated and connected approach across full-time and part-time programs. 

		External accreditation ensures our programs relevancy to employers, globally. 

		Placement and Alumini coordination.
",
Accounting Tuition Centre                  ,N/A,N/A,Ramanathapuram,"1B, Olive Block, Mayflower Apartments, Najundapuram Road, Ramanathapuram.",Coimbatore,India,,Accountancy,"
	The group of highly experienced faculty members in our institute give the students a kind of coaching that shall last its effect on their minds for a very long haul. Study materials we provide are of very high quality and always upgraded as per the recent requirement of the University, as well as the industry. During the classes every kind of assistance regarding the course is provided by our institution.",
Leap                  ,N/A,N/A,Saravanampatti,"Saro Complex, 86, Thudiyalur Road, Saravanampatti, Coimbatore, 641035",Coimbatore,India,,"Chemistry, Physics","Saro Complex, 86, Thudiyalur Road, Saravanampatti, Coimbatore, 641035",
Impresso3d                  ,N/A,N/A,Coimbatore Aerodrome,"MIG 190, Brundhavan Nagar 3rd Street, Near Airport,
SITRA,
Coimbatore",Coimbatore,India,,3D Printing,"MIG 190, Brundhavan Nagar 3rd Street, Near Airport,
SITRA,
Coimbatore",
Centum Intitute                  ,N/A,N/A,Peelamedu,"Kalimedu Street, Peelamadu, Coimbatore, 642113",Coimbatore,India,,"Accountancy, Arts Group, Business Maths, Commerce Subjects, Economics","
	Centum intitute is a reputed tutorial/coaching based in the city of Coimbatore for school and college level subjects. We offer excellent training facilities with competent faculties to help you gain a strong foundation in the subject and prepare to perform well in the examinations.",
Abinaya Institution                  ,N/A,N/A,Kovai Pudur,"34, Abinaya Shameem Garden, Sundakamuthur, Kovai Pudur, Coimbatore, 641010",Coimbatore,India,,"Accountancy, Business Organisation, Business Studies, Commerce Subjects","
	Abinaya Institution as an institute for accountancy and commerce classes for 11th and 12th std. We prepare the students for board exam for higher achievement.",
Lingua World                  ,N/A,N/A,Ram Nagar,"114A, Kalishwara Nagar, Mariappa Konar St, Coimbatore, Tamil Nadu, 641009",Coimbatore,India,,"IELTS, Spoken English, TOEFL, Chinese, Danish, English, French, German, Hindi, Italian, Japanese, Latin, Portuguese, Russian, Spanish, Swedish","
	Lingua World is one of the best institutes established in 1995, Coimbatore offering courses in foreign languages like German, French, Portuguese, Spanish, English Russian, Italian, Japanese, Swedish, Chinese, Danish, Dutch and Norwegian. A unique method called language immersion method is followed in teaching the languages. The language lab facilities and the Audio-Video packages make learning of any language natural and easy. The learning content in the study programme is designed to make learners who do not know anything about the language become fluent speakers. The lessons cover all aspects of living, working, socializing and travelling . Incorporating current research in language learning, our method of teaching will enable you to rapidly gain the ability to read, write and converse in the language of study. .",
Wisdom Foundation                  ,N/A,N/A,Tirupur,"165, Emkay Complex, First Floor. Kangeyam Road, Near Dsk Hospitals, Opp To Palamudhir Nilayam, Tirupur, 641604",Coimbatore,India,,"Civil, Computer, Electronics, Mathematics, Mechanical","
	Wisdom Foundation is a Coimbatore based reputed training center. We provide tuitions all board students, also providing classes for other competitive examinations.",
Chocolate Buds Play School                  ,N/A,N/A,Rathinapuri,"82 Pm Samy 1st Cross
Rathinapuri
Coimbatore",Coimbatore,India,,"Abacus Training, Communicative English, Handwriting, Language, Mental Maths","
	Welcome to Chocolate Buds Play School, a strong foundation education is that given to a child. Primary Education itself is segregated into:- ",
Immo S Global Administrative Consultation Services                  ,N/A,N/A,Peelamedu,"50/22(Under Renovation), Elgi Nagar, Meena Estates, Sowripalayam Road,",Coimbatore,India,,"Corporate Communication, Public Speaking, Corel Draw, Multimedia, Advanced Excel, Basic Computer, Computer for official job, MS Office, Customer Service, HR/Personnel, Leadership Skills, Sales Training","

		Authentic course material 

		Experienced faculties 

		Interview guidance classes 

		Grooming program 

		Surprise tests 

		Ethical practice 
",
Snak Tuition Center                  ,N/A,N/A,Perur,"Tatabad ,  Coimbaotre   And Pachapalayam, Perur.",Coimbatore,India,,"All Subjects, Computer Science, Mathematics, Business Maths, Home Science, IT & Computer Subjects, BCA Tuition, IT, BCA, M.Sc Tuition, MBA, MCA","
	SNAK Tuition Center provides tuition for standard X & XII science and mathematics subjects taken. Also handles computer science and mathematics classes for college students",
Felix Career Academics                  ,N/A,N/A,Ramanathapuram,"No 166/62, Arumugam Nagar, Ramanathapuram,  Near Royal Enfield Apartment",Coimbatore,India,,Mathematics,"
	Felix Academy is a reputed tutorial/coaching based in the city of Coimbatore for school level segment/subjects and specializing in competitive examinations and related based topics. We provide complete preparation for 2016 exams. We cover all the relevant topics and hold classes per/week. We hold special classes for weaker student and also Daily/weekly classes for practice purpose. Our center also conducts Crash course/Demo for students of all standards and competitive exams/test papers for the same.",
Rg\'s Academy                  ,N/A,N/A,Edayarpalayam,"Rg's Academy, 11/3, Gowtham Complex, Tadagam Road, Edayarpalayam",Coimbatore,India,,"Basic Computer, Communicative English, Spoken English, Arts & Crafts, Drawing & Painting","
	RG's Academy  is not just an institute built with bricks and mortar. It is an institution founded on the pillars of Faith and Hope. Over the long time, RG's Academy  has grown from being an ambitious endeavour to a leading academic institution committed to promoting excellence in the field of education and teaching",
Happy Learning Academy                  ,N/A,N/A,Gandhi Puram,"No.266M, BR Puram, Hopes",Coimbatore,India,,"Effective Communication, English, Customer Service, Leadership Skills, Business Etiquette, Interview Skills, Personality Development, Soft Skills","Very Reasonable Fee. For the students who enroll for English course, we avail personality development course for free.
More of speaking. More Practical !",
Lotus Educational Services                  ,N/A,N/A,Gandhi Puram,"Jubliee Complex, Near Siddapudur Ayyapan Kovil , New Siddapudur, Gandhipuram",Coimbatore,India,,"Accountancy, All Subjects, Biology, Economics, English, Hindi, Mathematics, NSTSE, NTSE, Olympiad Exam Preparation, School level computer, Social Studies, Geography, History, French, Tamil","

		Experienced Faculties

		Flexible Timing

		Interactive Sessions
",
Texila American University                  ,N/A,N/A,Kuppakonam Pudur,"Texila American University - Admission Office, C/o- SAKSHI Education Consulting & Training (P) Limited, #34/1, K.S.Arunachalam Road, K.K.Pudur, Coimbatore-641038. Tamil Nadu, India.",Coimbatore,India,,"Biology, Chemistry, Mathematics, Physics, BBA Entrance, BBA Subjects, Management Subjects, B.Ed, BBA, MBA, MCA, NCLEX, Study in China, Study in USA, USMLE","
	On Campus Programs: 1. MBBS 2. Nursing Online and Work-blended Programs 1. School of Clinical Research (Masters and Doctoral) 2. School of Behavioral Science (Masters and Doctoral) 3. School of Public Health (Masters and Doctoral) 4. School of Nursing (Masters and Doctoral) 5. School of Information technology (Masters and Doctoral) 6. School of Management programs (Masters and Doctoral) 7. School Of Education (Masters & Doctoral) 8. School of Alternative Medicine (Doctoral) 9. School of Research",
Patashala Coaching Centre                  ,N/A,N/A,Pollachi,No 9 Vivekananda Street P N Pudur,Coimbatore,India,,"All Subjects, Mathematics, Art & Craft Designing","
	Patashala makes learning an easy and enjoyable activity for all the students. Our programmes are designed to build a strong foundation in all the subjects and prepare them to face the examinations without fear. Our trained teachers provide attention to each student so that they may rectify their problem areas and strengthen themselves.",
Ara Education                  ,N/A,N/A,Gandhi Puram,"3rd Floor, Durga Complex,  6th Street,Cross Cut Road,Gandhipuram,",Coimbatore,India,,"ACCA, CA - CPT, CA - Final, CA - IPCC, CMA Final, CMA Foundation, CMA Intermediate, CMA-CPA-ACCA-CIMA, CS - Executive, CS - Foundation, CS Professional, Bank Clerical, Bank PO, IBPS, RBI Exam, Law Entrance, BBA Entrance, BBA Subjects, Management Subjects, MBA Entrance, AIPMT, Medical Entrance Exams,... More [+]","
	Professionalism is something we all aspire to in our careers. Being a professional gets you noticed, it earns you respect and can help you to climb the career ladder. ARA is created with the objective of offering the new age career aspirants highly prestigious and globally demanded career options in professionalism by providing internationally recognized bench-marked professional courses. ARA is the place where virtual teachings and online education enlighten you and build your knowledge deep inside your mind saving your time, money and energy.",
The Leisure Online College                  ,N/A,N/A,Karumathampati,"The Leisure Online College, 
Kandaswarna Mega Mall, A Block - 2nd Floor, 
Saradha College Road, 
Salem -636 016, Tamilnadu.",Coimbatore,India,,"C, C++, Java and J2EE, Spoken English, Corporate Communication, Effective Communication","
	The Leisure Online College is the worlds best platform to learn anything online from anywhere. At the leisure online college, we partner with worlds top quality instructors to create top quality courses covering almost all the topics ranging from computer programming to health. We help you to discover best courses to align with everyones learning needs. Vision: The Leisure Online College is committed to becoming the destination of choice for those seeking a first-class online learning experience through innovation and modern technology at an affordable price to shape the future of millions of people and help them create an opportunity for themselves and for others. Mission: To let you grow in the fields of your dreams by providing you online professional education in an interesting, fun and efficient way. we bring learning to you at, your time, your pace, your location, your device, your budget.",
Sms Academy                  ,N/A,N/A,Sai Baba Colony,"Avinashi Lingham College Near,sai Baba Colony.coumbatore",Coimbatore,India,,"All Subjects, Hindi, Mathematics, Physics, Biology, Chemistry, Education, English, B.Ed Tuition, Bank PO, CA - CPT, CA - Final, Spoken English","
	SMS Academy is a reputed tutorial for school and college level tutoring based in the city of Coimbatore. Various subjects are taught by domain experts through well structured classroom programmes. ",
Krish Academy                  ,N/A,N/A,Gandhi Puram,"No.133, 1st Floor, Kattoor Road,   641037.",Coimbatore,India,,"CA - CPT, CA - Final, CA - IPCC, CMA-CPA-ACCA-CIMA, CMAT, CS - Executive, CS - Foundation","
	A wide range of competitive exam preparation is conducted with great results at Krish Academy. at the city of Coimbatore we are working in this field for quite some time now. Our success is the result of our honest endeavour marked with unchanging quality.",
Gnosis Academy                  ,N/A,N/A,Thudiyalur,Thudiyalur,Coimbatore,India,,"English, Mathematics, Social Studies, Mental Maths, Biology, Chemistry, Physics, CSAT, IAS Preparation, Railways Exams, Effective Communication, Spoken English","
	Gnosis Academy is a reputed coaching and training center in the city of Coimbator working tirelessly to bring quality education through honest endeavour and well planned approach. Join us soon and enrich yourself !",
Nandanam Tuition                  ,N/A,N/A,Tvs Nagar,"Nandanam Tuition Centre, No 20,sri Ram Illam,abbas Garden,edayarpalayam,coimbatore-641025",Coimbatore,India,,"Polytechnic, Auto CAD, Civil, Drawing, Mechanical","A renowned coaching centre Nandanam has complete tutorial programmes in te segments of B.E, Diploma in Civil Engineering, M.E Structural Engineering, First year Engineering Subjects, Engineering, Graphics, Engineering Mechanics etc. We are here to meet all your educational needs and it is assured that you that you will come out of our classes much stronger. ",
Ibt                  ,N/A,N/A,Sai Baba Colony,No 34 Bharathi Park Cross Road 8,Coimbatore,India,,"Body Language, Interview Skills, Personality Development, Soft Skills, MATLAB Training, VLSI Designing Training, MBA Entrance, Bank Clerical, Bank PO, Insurance Exams, Railways Exams, RBI Exam, SBI Exam, School Service Commission, SSC Exams","
	Greetings from IBT Coimbatore!! It is our privilege to introduce ourselves as one of the top Bank exam, Insurance exam, Railway and SSC exam coaching institute in India offering quality education and training to the student community for a long time. We have a team of devoted and competent professionals as administrators and faculty members who work with zeal in training and helping students to achieve their goals. IBT have around fifty centres pan India. Broad outline of our courses: SBI PO, IBPS PO, SBI Clerk, IBPS Clerk, IBPS RRB PO, IBPS RRB Clerk, SSC CGL, SSC HSC, Railways exams, Insurance exams AAO, ADO and Assistants, campus recruitment training and other competitive exams.",
Dakshaa Global Solutions                  ,N/A,N/A,Neelikonampalayam,"F 4, Sai Dwaraga Apartment",Coimbatore,India,,"All Subjects, English, Mathematics, Chemistry, Computer Science, Chemical, Computer",Individual tutors for each and every student. Flexible timings. More practical and real time examples to make students understand better,
Sms Academy                  ,N/A,N/A,Gandhipuram,"Peelamedu, Gandhipuram",Coimbatore,India,,"All Subjects, Biology, Physics, Social Studies, Algebra, English, B.Com Tuition, BA Tuition, Botany, Indian Classical Music","SMS Academy is a reputed coaching center dealing in classrooom based coaching and home tuition located in the city of Coimbatore. We provide school level, College level and music tutoring effectively in the segments of All Subjects, Biology, Physics, Social Studies, Algebra, English, B.Com Coaching, BA Coaching, Botany and Indian Classical Music.",
Platinum Health And Educational Trust                  ,N/A,N/A,Gandhipuram,Gandhipuram,Coimbatore,India,,"MBA, Study in China, Study in Europe, Study in New Zealand",Platinum Health And Educational Trust provides free counselling to students who have successfully finished plus 2 years. It is an aspiring doctors institution for career consulting and career counselling. Join us and enhance your future prospects !,
K V A Skills Academy                  ,N/A,N/A,Ramanathapuram,Ramanathapuram,Coimbatore,India,,"Abacus Training, Communicative English, Effective Communication",KVA Skills Academy is having presence in Abacus education since a long time in the city of Coimbatore. There is 2000 trained students to our credit. Our brand of training programme is reflected through our successfull students who are placed all over the country.,
Schoolpage Tutorials                  ,9738021054,http://www.schoolpage.me/,Abu Fazal Enclave,Delhi NCR 110001,Delhi,India,,"Chemistry, English, Mathematics, Physics, French, German, Hindi, Spanish","
	School Page is the outcome of a long quest to combine the latest in pedagogy, through its unique e-Tutoring (STS) methodology, with the best in technology, which makes it available to students from all over the world.While there are large numbers of great teachers available throughout the world, great teaching and great tutoring are very different in many ways and require very different approaches. There are also many differences between classroom teaching and off-school tutoring methodologies. With this in mind, the SchoolPage team worked with other global academics to create the unique SchoolPage e-Tutoring System (the STS), which is based on Richard E. Mayer’s ‘Cognitive Theory of Multimedia Learning’. The STS is a highly structured academic system. Through the use of a 9-stage lesson organizational structure, STS is used in every SchoolPage session ensuring better engagement, superior retention and rapid results. STS includes the use of cognitive tools such as Mind Mapping, self-diagnosis tools such as Comfort Boxes, and Learning Outcomes that are highly student centric.",
Tutor 24*7                  ,8826219696,http://www.tutor24x7.net,Green Park,"810, Vishal Bhawan, 95, Nehru Place, New Delhi-110019.",Delhi,India,,"Botany, Chemistry, Mathematics, Physics, Zoology, Biology, AIEEE, AMIE, Architecture, CET, GATE Exam, IIT JEE Mains, AICEE, AIPMT, Medical Entrance Exams","The heart and soul of Tutor24x7 is engaged in providing the delight factor in learning leading to Learn anywhere and at any time; Learn at one’s own pace; Augment, use the lessons as a refresher to what they one has have learned in a face to face classroom; Retain the content more because of the bite sized learning sessions instead of a longer instructor-led training.",
Success Tutorial                  ,8130350881,N/A,Lakshmi Nagar,D 223 LAXMI CHAMBERS 2ND FLOOR  LAXMI NAGAR,Delhi,India,,"Personality Development, Accountancy, Biology, Botany, Commerce Subjects, Costing, Economics, History, Physics, Political Science, Zoology, Auditing, B.Com Tuition, Direct Tax, Financial Management, MicroBiology, BBA Subjects, Management Subjects",Success Tutorial is a reputed tutorial based in the city of Delhi for school level and specialization in competitive level examination. We have all the resources to provide you with the best ambience for quality learning. You will be provided full attention to rectify your problem areas and better your strength.,
Vidya Guru                  ,7838673733,http://www.vidyaguru.in,Tilak Nagar,"20/1-a, Jail Road, Prem Nagar, Nr. Tilak Nagar Metro Station(Gate No.3)",Delhi,India,,"Bank Clerical, Bank PO, CWE Coaching, IBPS, SSC Exams","

		Maximum Number Of Classes

		Excellent Faculty

		Shortcuts & Time-saving Techniques

		Small Batch Size

		Personal Attention

		Regular Doubt Sessions

		Test Series

		Comprehensive Study Material

		Performance Tracking

		Full Course Coverage
",
Achievers Point                  ,9999424123,http://www.achieverspoint.com,South Extension-i,"F-18, First Floor, South Ex Part I",Delhi,India,,"IELTS, TOEFL, ACT Exam, GMAT, GRE, NCLEX, OET, PTE, SAT, Study in Australia, Study in Canada, Study in China, Study in Dubai, Study in Europe, Study in France, Study in Germany, Study in Ireland, Study in New Zealand, Study in Norway, Study in Singapore, Study in Switzerland, Study in UK, Study in U... More [+]",Gurukul revisited! Individualised attention & build up a chord as it was during thousands year old Gurukul. Incredible Success Story! Consistent track record of long years of delivering outstanding results in various exam make us the best training institute. It is actually incredible. Each & every class we go through feedback slip which makes sure we deliver what exactly we promise. Performance monitored through minutely designed measures. Mentors are always present at any stage of learning and can be contacted through SMS. Our trainers come from very cultured background that includes real test takers & person with global expertise.,
Ims Centre For International Education                  ,9650852283,http://www.imsindia.com/,New Friends Colony,"101-a, Ashoka Estate Building",Delhi,India,,"IELTS, TOEFL, GMAT, GRE, PTE, SAT, Study in Australia, Study in Canada, Study in China, Study in Dubai, Study in Europe, Study in France, Study in Germany, Study in Ireland, Study in New Zealand, Study in Norway, Study in Singapore, Study in Switzerland, Study in UK, Study in USA","101-a, Ashoka Estate Building",
Academic Solutions                  ,9818995228,N/A,Ashok Vihar,"J -9c, Phase 1, Ashok Vihar, MIG Flat",Delhi,India,,"All Subjects, Biology, Spoken English","
	- Mock tests

	- Self prepared notes

	- One to one tutoring",
Pace Coaching Classes                  ,8130250913,http://www.pacecoachingclasses.com,Laxmi Nagar,"Office No. 202, D-385, Gali No.12, Near Laxmi Nagar Metro Station, Gate No.1",Delhi,India,,"Accountancy, Anatomy, Bio Technology, Biology, Botany, Business Maths, Chemistry, Computer Science, Economics, IT & Computer Subjects, Mathematics, Physics, Statistics, Zoology, Algebra, School level computer, Actuarial Science, B.Com Tuition, Banking & Finance, Bio-informatics, Costing, Direct Tax,... More [+]","Pace Coaching Classes believes the function of education is to teach one to think intensively and to think critically.Professional competence to teach the subject. Located in a central place with adequate infrastructure, extra space to keep their personal belongings. Providing quality education, study material, competent staff, online help from experts.",
Raj Engineering Academy                  ,8826974375,http://www.rajengineeringacademy.com,Rohini,D 12 25-26 First Floor Sector-8 Rohini,Delhi,India,,"IT & Computer Subjects, Mathematics, Physics, Statistics, B.Sc Tuition, Computer Science, Electronics, IT, Polytechnic, BITSAT, GATE Exam, IIT JEE Mains, WBJEE, Computer, Electrical, Instrumentation, Mechanical",As an institute Raj Engineering Academy's primary aim in starting this institute was to impart technical education to engineering students in the real sense by implying on the needs and application of the engineering subjects and not just on formula and mugging by rote. Our approach to education is very pragmatic with completely holistic teaching methods ensconced inside an idealistic mantra.,
Robo Club                  ,9654348322,http://roboclubindia.com/,Nehru Place,"B 14 Lower Ground Floor, Chirag Enclave Next To Fortis C Doc, Opp. Nehru Place",Delhi,India,,N/A,"
	Robo Club is a world-class Robotics Club for young innovators. Robots are the workforce of the very near future. Young engineers now have a top-notch robotics club where they can design and actually build virtually anything they can think-up. They are able to achieve so though our action-packed programs in robotics, mechanics, electronics, coding and animation with solid foundations in Science, cutting edge technology, engineering and Mathematics. Through active participation in robotics competitions our young innovators get to shine in the national and global arenas.",
Seido Karate                  ,N/A,N/A,Greater Kailash I,"Arya Samaj Mandir, Greater Kailash I, Delhi",Delhi,India,,N/A,"
	Seido Karate Delhi is affiliated to The World Seido Karate Organisation. The Organisation combines traditional practices of Karate as a martial art with the beliefs and principles of Kaicho that have been honed by him over fifty years of learning and teaching karate. Our classes are intensively designed in order to meet the varying needs of the students. All our instructors are highly trained and professional.",
Vishal Louis Academy Of Dance                  ,N/A,N/A,Prashant Vihar,"A-1/14, Prashant Vihar",Delhi,India,,"Bharat Natyam, Creative dance, Folk Dance, Kathak, Odissi, Salsa, Western Dance, Indian Classical Music, Instrumental, Modern Songs, Singing, Sitar, Western Classical Music","
	Caring and competent teachers",
Learning Square                  ,N/A,N/A,Gujranwala Town,"A-12 Chhatrasal Stadium Road, Opposite Gujranwala Town Chhatrasal Stadium",Delhi,India,,"Acting & Drama, Arts & Crafts, Model Making, Photography, Pottery, Sculpture Making","
	To create human beings of healthy body and mind is of utmost importance for our future and we are doing just that. Programmes are designed for the childrens' early development of brain and mind. The courses are aimed at opening up the learner's inherent potential and good senses to the fore.",
Amrapaali Kala Peeth                  ,N/A,N/A,Dwarka,"Plot No. A-138 Block - A, Sec- 8, Near Queens Valley School",Delhi,India,,N/A,"
	Amrapaali Kala Peeth is a premier education centre for Arts  that empowers students with creativity and knowledge and pave the way for multi-dimensional growth across various segments of music industry. ",
The Mango Tree Reading Club                  ,N/A,N/A,Sainik Farm,"No. 8, Sainik Farms, Khanpur Close To Select City Walk",Delhi,India,,"Acting & Drama, Adventure Camps, Arts & Crafts, Candle Making, Drawing & Painting, Model Making, Pottery, Sculpture Making, Summer Camps","
	-",
Usha Mangla's Art Academy                  ,N/A,N/A,Rohini,"D-7/179, Sector - 6, Rohini, Near Vishram Chowk",Delhi,India,,"Abacus Training, Personality Development, Speech & Drama, Spell Bee Training, Acting & Drama, Arts & Crafts, Drawing & Painting, Model Making, Photography, Pottery, Sculpture Making","
	Usha Mangla has been working since a long time in the field of art and has been attached with many of the big names and worked with many of the institutions till date. The centre is a leading name in helping the students realize their potential in the domain of Art.",
Shape Up Kids                  ,N/A,N/A,South Extension-ii,"C-51, South Extn I I",Delhi,India,,"Abacus Training, Handwriting, Mental Maths, Personality Development, Speech & Drama, Spell Bee Training","
	An all round activity center for children of various age. Western dance, Kathak , Personality development course, Abacus, Vedic Maths, Music, Aerobics and many more activites are incorporated in our classes.",
Passion The Music And Dance Institute                  ,N/A,N/A,Tilak Nagar,285 Satya Niketan,Delhi,India,,"Bharat Natyam, Creative dance, Folk Dance, Western Dance, Indian Classical Music, Instrumental, Singing, Western Classical Music","
	-",
Brats N Cuties                  ,N/A,N/A,Dwarka,"G-55/56, Street No.5, Palam Extn., Near Sector-7, Dwarka",Delhi,India,,"Abacus Training, Handwriting, Speech & Drama, Spell Bee Training","
	-",
K R Mangalam Juniors                  ,N/A,N/A,Greater Kailash I,"KRM Campus , Opp N 258 , N Block , Greater Kailash 1 OPP N 258",Delhi,India,,"Abacus Training, Communicative English, Personality Development, Speech & Drama, Spell Bee Training","
	Lets start preparing your child for a better future ! We have a wide range of programmes that will help your child to cope better with life and be a well groomed and complete human being.",
Iksana                  ,N/A,N/A,Dwarka,"A-1, Suraj Vihar, Kakrola Dwarka Mor",Delhi,India,,"Abacus Training, Handwriting, Mental Maths, Personality Development, Speech & Drama, Spell Bee Training, Arts & Crafts, Candle Making, Drawing & Painting, Model Making, Pottery, Summer Camps","Iksana is a centre for performing arts which helps the creative potential of the learners, audiences and artists. The programmes are aimed at nurturing creativity and confidence in self-expression, building self-esteem and enhancing the imaginative spirit.",
Harmony Academy Of Music And Dance                  ,N/A,N/A,Janak Puri,"C4 F/ 247, Janak Puri Near Khanna Nursing Home",Delhi,India,,"Bharat Natyam, Creative dance, Folk Dance, Western Dance, Indian Classical Music, Instrumental, Singing, Western Classical Music",Comprehensive learning programme to fill your thirst for Music and Dance.,
Kalasthali                  ,N/A,N/A,Vasant Kunj,"B-5 & 6, 4511 Vasant Kunj Near Kendriya Vidyalaya",Delhi,India,,"Acting & Drama, Arts & Crafts, Drawing & Painting, Model Making, Pottery, Sculpture Making","
	Let you sublime senses come to the fore at the very beautiful Kalasthali. A wide range of programmes in the art and Craft are taught with great expertise and care.",
The Manthan School - Active Evenings                  ,N/A,N/A,Sector 79,"Mahagun Moderne, Plot No. GH - 02, Sector 78",Delhi,India,,"Abacus Training, Spell Bee Training, All Subjects, Arts Group, Bio Technology, Chemistry, Commerce Subjects, Computer Science, IT & Computer Subjects, Physics","
	Specially designed programmes for each students best potential to develop. At Manthan School you can rely on our authentic programmes marked with talent and best care.",
Ten Little Fingers                  ,N/A,N/A,Civil Lines,"G-Block, 34 Alipur Road, Civil Lines",Delhi,India,,N/A,"
	Complete infrastructure, Dedicated teachers",
Kadambari Sangeet Mahavidyalaya                  ,N/A,N/A,Dwarka,"D-996 (near Jai Jawan Gas Agency), Ramphal Chowk , Palam Extn, Sector - 7, Dwarka",Delhi,India,,N/A,"The centre has been imparting a deeper understanding and appreciation of music. Music as a profound human achievement and carrying this legacy in the right manner is our committment. To us music is a cause, it is a commitment. The music we teach helps in self discipline, confidence and a sense of commitment. To some it is a powerful channel to express emotions. For many of our students, music has become a profession or passion that has really taken them around the globe as cultural ambassadors.",
Gymboree Play And Music                  ,N/A,N/A,Greater Kailash I,"Inside Gurudwara Nanaksar, Gurudwara Road, S - Block, Next To Arya Samaj Mandir",Delhi,India,,N/A,"Stretch a child’s rapidly developing body & mind and you begin preparing him/her for life. GYMBOREE is the pioneer and global leader in early childhood development programs for children ages newborn to five. Based at San Francisco USA, for over 35 years Gymboree has been conducting specialized parent-child fun & interactive classes, encouraging a child’s development and helping parents understand it better. Created by child development experts, the Gymboree Learning Program is designed to support the growth and development of the ‘whole child’ – Physical, Social/Emotional & Cognitive. Today the Gymboree Program is enriching lives of children and families in over 35 countries across Africa, Americas, Asia, Australia and Europe.",
B Epic Kids College                  ,N/A,N/A,Najafgarh,"RZ-30, Prem Nagar, Thana Road, Najafgarh Near Natkhat Play School",Delhi,India,,N/A,"
	All round facilities",
Top Commerce Teaching                  ,N/A,N/A,Dpl Coke Oven Colony,"Gamon Bridge, DPL, Durgapur-2",Durgapur,India,,"CA - CPT, CA - IPCC, CMA Foundation, CS - Executive, MS Office, Tally ERP 9, Accounts, Advanced Excel, Business Analytics","
	Our faculties teach the students very carefully. we teach one to one basis. we teaching b.com all subject (hons and pass),CPT( CA entrance)-( all papers),cma / cwa foundation (all papers), CAT exam (computer accounting technician), CS foundation(all papers) and CWA and CA inter papers(new syllabus) and CS executive (taxation-direct and indirect, accounts and cost), and M.com also with a very affordable price. There is special discount available for financially incapable students. we are guaranteed that the teaching students are passed out from all exam with best marks. we have regular class module and some study mat. This is helping students. we also teach some computer courses i.e. tally, Basics,Taxation etc. The magic features of our institute the students have opportunity to earn money(this will be started in few days).",
Ronak Classes                  ,N/A,N/A,City Center,"A-1, MOULANA AZAD SARANI, CITY CENTRE, DURGAPUR-16",Durgapur,India,,"Mathematics, IIT JEE Mains, Medical Entrance Exams","
	Ronak Classes is a reputed tutorial/coaching center based in the city of Durgapur specializing in JEE (Mains & Advanced), ISI, CMI, KVPY, RMO and other Olympiads IIT Foundation (7th, 8th, 9th, 10th).",
J3s Institute                  ,N/A,N/A,Golf Nagar Housing,"136 Kuchkuchia Road, Opp. Durga Temple",Durgapur,India,,"Business English, Corporate Communication, Effective Communication, Spoken English","
	J3S Institute aims at making all its students irrespective of age, class or profession fluent in English through constant practice of speaking English. The institute provides almost a Homely Environment that helps the learners feel free to share or express their views, feelings, opinions, arguments in English quite easily. Basic grammar lessons required for good speech are provided at a regular basis and are explained by Experienced Trainer(s) as well. These not only help a learner speak good English but also Correct English. J3s Institute believes Speaking Fluent English is Easier if it is Correctly Pronounced. So Pronunciation is taught to each and every learner individually through audio & (or) video by the trainer(s). Besides, Body Language and Personality Development of learners are always taken care of as both these play important roles behind Well-presentation of an English Speaker. Last but not the least, the Learner-friendly Study Materials including print outs, audio files or video files provided by the Institute make the trainees feel easy to speak English after only a few classes. Your visit to J3s Institute is awaited, honoured & appreciated.",
Durgapur Gyan Sanchar                  ,N/A,N/A,City Center,UCP-10 Bengal Ambuja,Durgapur,India,,"Biology, Chemistry, Mathematics, Physics, Civil, Business English, Corporate Communication, Effective Communication, Spoken English, Body Language","

		Proven quality in training.

		Technically equipped class room.

		Approachable trainers.

		Student friendly ambience.

		Individual attention for each student.

		Convenient timings.
",
Nim Durgapur                  ,N/A,N/A,City Center,"City Center, Durgapur",Durgapur,India,,"B.Ed Tuition, BBA Tuition, BCA Tuition, English, BBA Subjects, Management Subjects, Beautician Course, Office Administration, Retail Management, B.Ed, BBA, BCA, MBA","National Institute of Management (Durgapur) is established with the spiritual support of Pundit Debu Choudhury former Dean of Delhi University. Under act 1961 of West Bengal Govt. The Institute is certified by ISO 9001-2008. We are offering comprehensive programmes in MBA, BBA, BCA, Hotel Management, BA, BSc, BCom, MA, MSc, MCom, Travel & Tourism Mgmt., Hospital Management, B Ed, D Ed, Nursing, ITI courses.",
Appleware                  ,N/A,N/A,Bidhannagar,"A1/9, S S B Sarani, Near Mahalaxmi Park Bus Stop, Beside Main Road",Durgapur,India,,"Abacus Training, All Subjects, Computer, Mental Maths, Basic Computer, BCA Subjects, C, C++, Computer for official job, Corporate Communication, Effective Communication, Spoken English, Art & Craft Designing, Drawing & Painting","
	Appleware Computer Academy an autonomous institution running under a registered society. Since long we are providing various training programms on IT and Soft Skills among school, college students as well as among Industry professional to fulfill their dream to gain high quality knowledge in that sector. Appleware Computer Academy is an authorized vocational training provider under DGET, Ministry of Labour and Employment, Govt of India. We provide training on IT and Soft skill sector with complete free of cost with post training placement support for successful students. ",
Xcellaskills                  ,N/A,N/A,City Center,"B33 Abanindra Bithi, City Center, Durgapur, West Bengal 713216",Durgapur,India,,"Computer Science, English, IT & Computer Subjects, Bank Clerical, Bank PO, MAT, Railways Exams, BCA Subjects, C, C++, Data Structures, MCA Subjects, MS Office, Business English, Spoken English","About Us
Xcella Skills Foundation is a professionally managed non-profit organization (operated by a non-profit trust body) engaged in imparting training to develop job related  skill sets of under graduate and post graduate students to enhance their employability quotient. We are one of the premier and  trusted skill development organization in Eastern India.
Our Vission
Xcella Skills Foundation was created with vision of creating future leaders in workplace and in society. We are dedicatedly focused to provide best quality training to our students at a very low cost. Our vision is to create skilled human resource for future India by acting as a linkage between various industries and unemployed young generation.  

Our Mission
Our mission is to train younger generation of India to make them employable. There is a big deficiency of appropriately skilled human resource  across various sectors of industries, which is emerging as a significant and challenge to India's economic growth. We have mission to bridge this gap by imparting quality education and training to unemployed youths to make them future ready .",
Flexonlabs                  ,N/A,N/A,Bidhannagar,"A/27 Armstrong Avenue, Bidhannagar, Durgapur-12. Near Pump House Bus Stop",Durgapur,India,,"IT & Computer Subjects, Computer, Spoken English, .Net, C, C++, C# (C Sharp), HTML Training, Java and J2EE, Java Script, Joomla Training, Magento Training, PHP and MySQL, Web Development, Wordpress Training","
	• Qualified faculties from reputed institutions

	• Strong infrastructure

	• Calm environment of learning 

	• Individual attention

	• Industry interaction facility",
Sraac Animation                  ,N/A,N/A,City Center,"MNAV-1 Bengal Ambuja, City Centre,",Durgapur,India,,"3D Animation, 3D Max / Maya, 3D Printing, Graphic Designing, Multimedia, Video Editing, Film Making, Model Making","
	When you think of a career in animation technology, only brand you can believe in is Sraac Animation. This is an organization famous for developing career in animation technology. With a great infrastructure, experienced and specialized faculty for providing the best quality training is available at our academy. Among varied specialities, OJT is one of the main specialities of ours.",
Genext Education                  ,N/A,N/A,City Center,"CA-6, Ambedkar Sarani, Near Bengal Ambuja",Durgapur,India,,"Biology, Chemistry, Mathematics, Olympiad Exam Preparation, KVPY Exam, Robotics, Bio Technology","
	GeNext’s faculty is made up of scholars in the field of education, all of whom are committed to teaching. The faculty provide the essence of the learning experience at the institute. All of them have one vision in mind to impart quality education and be a leader in the field of education. We provide valuable information regarding various premium institutes.",
Smu Durgapur                  ,N/A,N/A,City Center,"3/7, Central Park, Doctor's Colony, City Centre",Durgapur,India,,"B.Com Tuition, B.Sc Tuition, BA Tuition, BCA Tuition","
	SMU Durgapur is a leading provider of professional Distance learning Programs in India such as MBA, MCA, BCA, BBA and others. A winner of several awards including ‘student’s most preferred Distance education university’, SMUDE has helped lakhs of working professionals from leading corporates such as TCS, Infosys, HCL, Airtel, to name a few, to realise their career dreams through conveniently delivered high quality Degree Programs that accelerate their career growth with a professional edge.",
Time Durgapur                  ,N/A,N/A,City Center,"3/3,  Doctor's Colony, City Centre",Durgapur,India,,"Bank Clerical, MBA Entrance, Law Entrance, SSC Exams","
	TIME Durgapur is India's leading test-prep institute with a pan-India presence and is helping to build a few hundred thousand careers along the way. The company is constantly diversifying & entering into new areas. The key drivers of this success are TIME 's commitment to students, its pan-India presence, its highly committed team of R&D professionals and its well-researched study material and unique pedagogy.",
Brainware Durgapur                  ,N/A,N/A,City Center,"Near City Club, Opposite No. 2, Doctor's Colony, City Centre",Durgapur,India,,"Hardware Training, Multimedia, Networking, Web Designing","
	Brainware Durgapur has always been associated with providing quality job-oriented programmes to the youth of West Bengal at extremely affordable rates and has grown from strength to strength. ",
Tally Academy Durgapur                  ,N/A,N/A,City Center,"C-8, Central Park, 2nd Street, Doctor's Colony, City Centre",Durgapur,India,,"SAP Training, Tally ERP 9","
	A pioneering company, Tally Durgapur was the first to introduce codeless software, a natural language interface, path-breaking remote functionality and other unique capabilities. It was the first to launch free service and breakaway commercial terms including free upgrades and no charge per seat to transform the ownership experience. Its strong principle right from the early years to reach customers through a dedicated partner network has resulted in a robust partner system.",
Brainiac                  ,N/A,N/A,City Center,"3/C-14, Central Park, City Centre",Durgapur,India,,"Java and J2EE, Web Development","
	Brainiac is a team of enthusiastic and skilled professionals from around the globe specializing in web designing, content creation, e-commerce site development, site optimization, domain registration and social media marketing. ",
Epitome Durgapur                  ,N/A,N/A,City Center,"3/20, Maxmuller Path, Non Company, City Centre",Durgapur,India,,Management Subjects,"Epitome Durgapur has pioneered with years of vast experience in Professional and Vocational courses like Quality Control Engineering, Fire & Safety Management, Health & Safety Management, Embedded systems & Robotic Engineering in short term, long term and modular with placement facilities. We maintain a well-equipped class rooms with projector and air condition and Hygienic infrastructure in all the branches across the country. We have a strong placement division to cater to the job requirements of the youth.",
Iifa Durgapur                  ,N/A,N/A,Dcl Colony,"C-16, Dr.'s Colony",Durgapur,India,,"Presentation Skills, Public Speaking, Telephonic Skills","
	IIFA Durgapur provides students an opportunity to enter the world of customer service by being trained in this field. With proper Trainers and appropriate study methods, people joining the Institute are groomed in such a manner that they can receive good job opportunities.  ",
Et&t-tcil, Computer Education & Training                  ,N/A,N/A,City Center,"2/4, Central Park, Doctor's Colony, City Centre",Durgapur,India,,"Stock & Share Trading, .Net, 3D Animation, 3D Max / Maya, 3D Printing, AJAX Training, Android Training, AutoCAD, Basic Computer, C, C++, Cloud Computing, Data Structures, DTP, Java and J2EE, Microsoft Certification, Oracle Training, PHP and MySQL, Python Programming, Software Testing, Tally ERP 9, U... More [+]","
	ET&T-TCIL Computer Education and Training Institute provides students with the opportunity to study a wide variety of Courses in Computers in order to gain a proper job.  "
Vivekananda Computer Centre                  ,N/A,N/A,City Center,"3/12, Central Park, Doctor's Colony, City Center",Durgapur,India,,".Net, C, C++, Java and J2EE","
	Your way to success is we. At Vivekananda Computer Centre we provide the best coaching on varied technical subjects. We provide a kind of education that shall be your possession for the life time. Education is what remains after one has forgotten, what one has learned in school. The greater part of our misery or unhappiness is the lack of knowledge. To cover up the lack is creating happiness.",
Desms                  ,N/A,N/A,City Center,"Shantideep Complex, Satyajit Roy Sarani, City Center",Durgapur,India,,"All Subjects, Arts Group, Business Maths, Business Organisation, Business Studies, Chemistry, Commerce Subjects, Costing, IT & Computer Subjects, Mathematics, Physics, Statistics, Accountancy, Auditing, B.Com Tuition, B.Ed Tuition, B.Sc Tuition, BA Tuition, Banking & Finance, BBA Tuition, BCA Tuitio... More [+]","Durgapur Educational Society of Management & Science is imparting specialized training to students for several courses in core Management, Technical and General streams of education. It is also working as a finishing school by imparting training for different entrance examinations. Job oriented courses with cutting age technology are also in vogue.",
Gurumantra Academy                  ,N/A,N/A,City Center,"Bajaj Building-2nd Floor, Subhash Pally, Benachity, Durgapur - 713213",Durgapur,India,,"Bank PO, IBPS, RBI Exam, SBI Exam, SSC Exams","
	Over the years Gurumantra Academy has helped many students like you realize their goals of a successful career in government sector. The success of our students is inspiring and so is their faith in Gurumantra Academy. It is this faith that acts as a catalyst for our emergence as the continuously growing brand in the field of competitive exams. ",
Jajba                  ,N/A,N/A,City Center,"2/19, Nandalal Bithi",Durgapur,India,,"Defence Exams, Police Department Exam","
	Jajba Sena Bharti Training Centre was established with the mission of building ou youths for the security of our country. It is run and managed by Jajba Educational and Welfare mission. We instill strong values and discipline to bring out the potential of the young spirit.",
Pathfinder Purulia                  ,N/A,N/A,Rajbandh,"Ground Floor, Kalyani Smriti Bhawan, Near Zilla School More,  Dulmi Nadiha, Purulia",Durgapur,India,,"All Subjects, AIPMT, IIT JEE Mains, MAT, SAT, WBJEE","Pathfinder Purulia inspires and leads its employees through an environment of professionalism, trust, mutual respect and base our decisions on facts. We manage the brand and the funds entrusted to us by the owner and provide highest return to the group. We achieve sustainable results and mutual benefits with our partners through a professional and seamless execution. School level coaching and competitive examination preparation are our area of expertise. With Pathfinder Purulia, parents need not worry about their children as the teachers and the Institute itself acts as a parent and helps the child achieve success from a small age.",
Pathfinder Bolpur                  ,N/A,N/A,Kajora,"Sriniketan Road, Mudi Market, Opposite Bolpur High School, Bolpur",Durgapur,India,,"All Subjects, AIPMT, IIT JEE Mains, MAT, SAT, WBJEE","Pathfinder Bolpur will help them to achieve rewarding professional careers such that they make a firm imprint as truly global Indians. AIPMT, IIT JEE Preparation, MAT, SAT, WBJEE are some of our programmes. We know our students intimately and achieve their loyalty by exceeding their expectation. We inspire and lead our employees through an environment of professionalism, trust, mutual respect and base our decisions on facts. We manage the brand and the funds entrusted to us by the owner and provide highest return to the group.",
Iihe Durgapur                  ,N/A,N/A,Muchipara,"Durgapur, Muchipara, Ambagan, Near I. T. I.",Durgapur,India,,"Hardware Training, Networking","
	IIHE Durgapur has designed a course which is all is available to all and is within the range of the people who have average financial background to provide opportunity to get involved in this huge emerging market. ",
Online Tutoring Hub                  ,N/A,N/A,City Center,"City Center, Durgapur",Durgapur,India,,"Chemistry, English, IT & Computer Subjects, Mathematics, IIT JEE Mains, GMAT, GRE, SAT, BBA Subjects, Management Subjects, MBA Entrance, Auto CAD, Computer, IT","
	Specialized educational guidance at your home

	Time saving for both the student and parent

	Best tutors from all around the world

	Current awareness on research

	Right scientific guidance

	Regular test

	Homework help and exam preparation

	Helps in assignments

	Best resource at cost effective rate

	All lessons are recorded and can be viewed any time

	Printable notes provided",
It Source Technologies                  ,N/A,N/A,City Center,"C- 13, Ramkinkar Bej Sarani, City Center",Durgapur,India,,"IT & Computer Subjects, IT, Computer for official job, Hardware Training, Microsoft Certification, School level computer, Computer Hardware, Software Engineering","
	ITSource Technologies in its long years of operation has successfully managed to position itself as the Solution & Service provider of the IT industry as an IMS (Infrastructure Management Service) Company, with a team of over 2500+ talented enthusiastic & committed people. We always position ourselves as a true IT partner rather than as a complete IT vendor. This is possible only because we view the marketplace from customers angle, design a solution as per customers requirements, select the products which are leaders in the industry and known for standards and finally integrate them in the network.",
Smart Tuition (the Mentor)                  ,N/A,N/A,A-zone,"Rajendra Bhawan, Rammohan Avenue, A-Zone, Durgapur- 713204",Durgapur,India,,"All Subjects, Biology, English, EVS, Mathematics, Chemistry, Physics, Bengali, Hindi, Sanskrit",All our staff members are fully qualified teachers with more then 20 years of teaching experience and are currently working in the renowned schools system. This ensures that all materials provided in classroom are relevant and meets all the Board of Studies requirements and outcomes.,
Schoolpage Tutorials                  ,N/A,N/A,Ajit Nagar,Faridabad 121001,Faridabad,India,,"Chemistry, English, Mathematics, Physics, IELTS, Spoken English, TOEFL, French, German, Hindi, Punjabi","
	School Page is the outcome of a long quest to combine the latest in pedagogy, through its unique e-Tutoring (STS) methodology, with the best in technology, which makes it available to students from all over the world. While there are large numbers of great teachers available throughout the world, great teaching and great tutoring are very different in many ways and require very different approaches. ",
Vectors Academy                  ,N/A,N/A,Ballabhgarh,"SCF-77, 2nd Floor, Above More Departmental Store, Near ICICI Bank, Sector 49, Sainik Colony, Faridabad, 121001",Faridabad,India,,"Civil, Mechanical, Mathematics, Electronics, Computer, Physics, Biology, Chemistry, IIT JEE Advanced, AIEEE, IIT JEE Mains, Zoology, AIPMT, Medical Entrance Exams","
	A premier institute for IIT JEE and MEDICAL preparation. It is the institute run by IITians. Founder is Prashant Shreshtha who is an IIT alumni who has B.Tech degree from IIT and has 8 years of experience. Just opened the institute in Faridabad,Sainik Colony.",
Asoe - A State Of Education                  ,N/A,N/A,Faridabad City,"182, Hbc, Sector 10, Faridabad",Faridabad,India,,"Civil, Computer, Electrical, Electronics, IT, Mathematics, Mechanical","A STATE OF EDUCATION was established in year 2014 under the aegis of “ASOE Tutorials” to serve the society with up skilled education and transforming students into technocrats, managers and above all a disciplined human being. Through the continuous improvements, we have also understood the true needs of the students to make them eligible for future aspects. ASOE is a comprehensive institute to facilitate and promote education in emerging areas of professional teaching with focus on new frontiers of science, technology, engineering, management, administration, leading to evolution of enlightened scholars. We have been actively involved with social causes since our inception and have drawn appreciation from one and all for the work in various social paradigms.",
International Institute Of English Language                  ,N/A,N/A,Faridabad Nit,"5M/116, Cafe Coffee Day, Opposite K.L. Mehta Dayanad College, N.I.T. Faridabad",Faridabad,India,,"Business English, Corporate Communication, Effective Communication, Public Speaking, Spoken English","
	International Institute of English Language helps to learn English and personality so that they can achieve growth in their professional world.",
Educare                  ,N/A,N/A,Jawahar Colony Faridabad,"Educare Just Opposite To Chandani Garments,
Jawahar Colony, Faridabad, 121005",Faridabad,India,,"Algebra, Mathematics, Physics","
	Educare welcomes students who are prepared to interface their experience and diverse backgrounds with our high-end educational programmes.",
Case Extraminds Edusocial                  ,N/A,N/A,Badshahpur,"Charmwood Plaza, Charmwood Village
Surajkund, Badshahpur, Faridabad, 121009",Faridabad,India,,"Accountancy, Biology, Chemistry, Economics, Physics, Mathematics, Social Studies","
	Case Extraminds Edusocial Ltd has come up with top-notch educational DVDs for students from VII to XII standard. The video lectures cover new CBSE syllabus for the academic session (2015-2016) and are inclusive of textbook lessons, solved examples, notes, labeled diagrams and animated experiments.",
The Winner Educational Institute (an Authorized Study Centre Of All India Computer Saksharta Mission)                  ,N/A,N/A,Ballabhgarh,"Tigaon Road, Near Bhagat Singh Para Med Institute, Ballabgarh, Faridabad",Faridabad,India,,"Advanced Excel, Basic Computer, Computer for official job, MS Office, Tally ERP 9","Tigaon Road, Near Bhagat Singh Para Med Institute, Ballabgarh, Faridabad",
Study Hub                  ,N/A,N/A,New Industrial Township,"Shop No 67
Nit 5
Faridabad",Faridabad,India,,"Accountancy, Business Studies, Commerce Subjects, Economics","
	As an institute Study Hub is located in new industrial township, Faridabad and we provide tuitions classes from 6th to 10th all subjects and 11th 12th accountancy and commerce subjects.",
Haryana Kickboxing Association                  ,N/A,N/A,Faridabad City,"Govind International School, Sector 46, Faridabad",Faridabad,India,,Boxing,"
	Haryana Kickboxing Association works with the prime objective of promoting Kickboxing as a main sport in the state of Haryana. We offer intensive practice sessions in order to help our students excel in their learning. We offer intensive training sessions that are conducted by our certified instructors. Our self defense classes are designed to suit ladies or anyone who feel overwhelmed in traditional martial arts.",
Escort Swimming Pool                  ,N/A,N/A,Sector 12,"Sports Complex, Court Road, Faridabad Sector 12, Faridabad",Faridabad,India,,Swimming,"
	Escort Swimming Pool is a famous institute offering swimming classes for students of all age groups. We provide specialized solutions based on the needs of the students. We make sure to impart the correct knowledge in our students so that they can at least take up the swimming as an exercise.",
Sai Sanskar                  ,N/A,N/A,Faridabad City,"Sai Vatika, A-93, Ashoka Enclave- I I, Sector 37 Faridabad",Faridabad,India,,"Basic Computer, Creative dance, Bollywood, Western Dance, Guitar, Instrumental, Modern Songs, Piano, Western Classical Music","
	Sai Sanskar is an educational institute offering kids with a training experience of international level. Our innovative training methodologies, joyous ambiance not only delights but also energizes kids. Our world class infrastructure helps kids to unleash their creativity and innate skills in a free and spirited way. We keep kids engrossed by letting them enjoy their learning and playing through various interesting and exciting themes. We believe in encouraging students to do significant things through fun filled activities, keeping in mind that every student is special and unique. It is our goal to impart quality of education, which is more than imparting knowledge.",
Sincere Kids Academy                  ,N/A,N/A,Sector 7,"No. 2328, Sector 7 A, Housing Board Colony, Faridabad",Faridabad,India,,Basic Computer,"
	Sincere Kids Academy is a reputed academy offering intensive coaching service in Computer programs. Our tutoring approach is not limited to a single methodology, but We select the methodology or the right combination of methodologies that are right for a child's needs. We involve several modernized teaching methods which makes the class more interactive and interesting for the students.",
Msd Institute                  ,N/A,N/A,Faridabad City,"Ashoka Enclave Main, Sarai Khwaja Near Kanishka Towers, Faridabad",Faridabad,India,,Basic Computer,"
	MSD Institute is providing students of all age groups an excellent opportunity to polish and brush up their English communication skills through our English speaking and personality development programs. Apart from this we also conduct classes in a wide range of Indian dance forms. We involve different new and innovative methods of teaching so that the students are fully involved the the learning process.",
Vrinda Institute Of Cultural Arts                  ,N/A,N/A,Sector 49,"H.no-3983, Block- K, Mpart- I I, Sainik Colony, Near Dav Public School, Sector 49, Faridabad",Faridabad,India,,"Basic Computer, Creative dance, Folk Dance, Bollywood, Odissi, Flute, Instrumental, Piano, Singing, Tabla","
	Vrinda Institute of Cultural Arts is a well established and dedicated cultural training institute. The institute was founded with the sole purpose of offering quality training services for art lovers and provide them with long term certificates and degrees. We conduct classes in small batches with four students per batch. Our primary objective is to offer quality training at an affordable cost.",
The Learning Club                  ,N/A,N/A,Sector 29,"1371, Sec-29 Faridabad Near Holy Child Public School, Faridabad",Faridabad,India,,"Basic Computer, Creative dance, Folk Dance, Bollywood, Odissi, Western Dance, Arts & Crafts, Candle Making, Cooking & Baking, Drawing & Painting","
	The Learning Club serves as a one stop training center for kids as well as adults. At The Learning Club the atmosphere is fun and informal. Our training approach is is simple, modern and imaginative. We conduct classes for all age groups and has designed various flexi modules to make performing arts accessible to a larger audience.",
Bnk Art Craft                  ,N/A,N/A,Sector 16,"1876, Sector 16, Faridabad",Faridabad,India,,"Cooking & Baking, Drawing & Painting","
	BNK Art Craft offers a variety of courses such as Art and Craft classes, Cooking and Baking classes, candle making, chocolate making. Our courses are available both for children as well as adults. We generally conduct group learning sessions but on the special requirements of the students we also conduct individual classes. For each and every course the required materials are provided by us.",
Colors N Creations                  ,N/A,N/A,Old Faridabad,"Sears 605, Omaxe Heights, Sector 86, Faridabad",Faridabad,India,,"Western Dance, Arts & Crafts","
	Colors N Creations is a creative educational institute offering individualized lessons for Art and Craft classes. Apart from this we also offer classes in several dance forms such as Western Dance, contemporary, freestyle, hip hop, jazz and many more. We prefer offering private one to one sessions as through this the individualized requirement of the students are well attended.",
Kala Safari                  ,N/A,N/A,Faridabad City,"Scf -140, Basement, Sec- 17 Huda Mkt., Below Muthoot Finance",Faridabad,India,,Arts & Crafts,Attention to each students progress.,
Tuition Centre                  ,N/A,N/A,Old Faridabad,NIT 3 Faridabad Police Station,Faridabad,India,,Arts & Crafts,"
	Art and Craft Classes designed develop your skills and fill your world with pleasure !",
Lil Einsteins Play School                  ,N/A,N/A,Faridabad City,"SCF 857, Sector 17, Faridabad In Huda Market",Faridabad,India,,Arts & Crafts,Attention to each students welfare.,
Kreative Tantra                  ,N/A,N/A,Faridabad City,"Plot No. 735, Sector 10, Near 7 & 10 Chowk",Faridabad,India,,"Instrumental, Western Dance, Arts & Crafts",Effective teaching methods and feedback to Guardian.,
Dance Zone Academy                  ,N/A,N/A,Greenfields,"The Play School, Green Field Colony",Faridabad,India,,"Instrumental, Arts & Crafts",Attention to each students welfare.,
Images Modern Art Studio                  ,N/A,N/A,Sainik Colony,"B - 608, Sector 49 Sainik Colony",Faridabad,India,,"Arts & Crafts, Drawing & Painting",Comprehensive learning programme,
Kreations                  ,N/A,N/A,Old Faridabad,"Omaxe Heights, Near Sai Mandir",Faridabad,India,,Arts & Crafts,Learn from the experts,
Meetart                  ,N/A,N/A,Faridabad City,"876, Sector - 15 Near St Albans School",Faridabad,India,,"Arts & Crafts, Cooking & Baking, Drawing & Painting","
	Impress your friends by opting our programme in the Art and Crafts!",
Achievers Institute                  ,N/A,N/A,Faridabad City,"Dso 1 , Hudda Market Part 1, Chungi,",Faridabad,India,,Mathematics,"
	Achievers Institute is a reputed tutorial/coaching based in the city of Faridabad for school and college level segment/subjects. We have excellent faculty and shortcuts & time-saving techniques.",
Loops N Knots                  ,N/A,N/A,Faridabad City,"240, Near Mother Dairy",Faridabad,India,,"Arts & Crafts, Candle Making, Cooking & Baking, Drawing & Painting, Model Making, Pottery, Sculpture Making",A fantastic world of culture and learning !,
Prayas Academy                  ,N/A,N/A,Sector 15,908/15A,Faridabad,India,,"Chemistry, English, Mathematics, Physics","We are operating from the heart of city for the last 16 yearsWe takle academic coaching classes for class IV-XII our faculty comes from most renowned schools of the city ,we also have specialist free lance teachers for individual subjects",
Hand In Hand                  ,N/A,N/A,Indirapuram,"Mahavid Villa, 404, Nitikhand-2 Indirapuram, Near Swarn Jayanti Park",Ghaziabad,India,,N/A,Comprehensive learning programme for your best benefits.,
Mickey Einstein Activity Center                  ,N/A,N/A,Indirapuram,"#02222 ATS Advantage, Indirapuram Shipra Mall, Presidium School",Ghaziabad,India,,N/A,"
	Copy from website",
Serra International Pre School                  ,N/A,N/A,Raj Nagar,R-5/10 Raj Nagar Ghaziabad,Ghaziabad,India,,Summer Camps,"
	Serra International Pre School is an educational institute for children promoting the early childhood education system of the country. We follow a unique method of pedagogy and cater to the growing segment of quality conscious parents, who desire a holistic experience in the formative years of their child's life. We follow inquiry based learning and teaching method which is globally accepted.",
Art Workx                  ,N/A,N/A,Raj Nagar,"1-A, Raj Kunj, Raj Nagar",Ghaziabad,India,,"Robotics, Summer Camps","
	Art Workx is a well established education organization based in Ghaziabad. We offer comprehensive training a wide range of courses. Our classes are specially designed for kids keeping in mind their learning priorities. We conduct sessions in small batches so that more focus can be placed on individual student and their requirements.",
Olympia Academy                  ,N/A,N/A,Dadri,"N.t.p.c, Dadri, Ghaziabad, 201008",Ghaziabad,India,,"Mathematics, Physics",N/A,
Srish Tuition Center                  ,N/A,N/A,Vasundhara,"Hno.667, Friends Society, Sector-12, Vasundhra, Ghaziabad, 201012",Ghaziabad,India,,"All Subjects, English, EVS, Geography, History, Mathematics, Science, Chemistry, Computer Science, Physics, Biology","
	Srish Tuition Center was established with the sole and sacred objective of imparting quality education to the students.",
"Wave Coaching, Indirapuram                  ",N/A,N/A,Indirapuram,"7041 ATS ADVANTAGE AHINSA KHAND
INDIRAPURAM",Ghaziabad,India,,"Biology, Chemistry, Mathematics, Physics, AIEEE, AMIE, CET, GATE Exam, IIT JEE Mains, AIPMT, Medical Entrance Exams","
	Wave Coaching, Indirapuram provides real-time teaching environment that has all the elements of Classroom Coaching. Student can ask Doubts in the Classroom as well as separately out of class. A course designed for the students keeping in mind the new competition levels & pattern of the examinations.",
Brainiac Coaching Classes                  ,N/A,N/A,Crossing Republik,"3027,tower 2, Gh7, Crossing Republik, Ghaziabad - 201016",Ghaziabad,India,,"Mathematics, Physics","3027,tower 2, Gh7, Crossing Republik, Ghaziabad - 201016",
Indo Academy                  ,N/A,N/A,Shastri Nagar,"A Block, House No.-7, Hapur Road, Shastri Nagar, Ghaziabad, 201002",Ghaziabad,India,,"Business English, IELTS, Public Speaking, Spoken English, TOEFL","
	Indo Academy helps the students to develop their English and helps them to do better in their professional world.",
Ns Coaching Center                  ,N/A,N/A,All Areas,"B-7 New Punchwati
Ghaziabad",Ghaziabad,India,,"Bio Technology, Biology, Chemistry, Mathematics, Physics","
	NS Coaching Center we try to provide better education with the clear knowledge. Help student score better and in deciding field of interest. And besides this, also prepare him for competitive examination. So that the student will always ready to face future challenges.",
Gurukul Academy                  ,N/A,N/A,Shalimar Garden,"Kothi No. B-134, Shalimar Garden, Ext. II, Near SM World Mall",Ghaziabad,India,,"Accountancy, Business Maths, Business Studies, Economics, Mathematics","
	Gurukul Academy is a privately run academy of premier rank. Our faculty is experienced, dedicated and result-driven. We are the institute for school students where they will get good facility and calm studying atmosphere with a very high level of teaching. We will identify the strength and weakness of each student individually for their studies.",
Name,Phone,Website,Area,Address,City,Pincode,India,Image,Category,About
Name,Phone,Website,Area,Address,City,Pincode,India,Image,Category,About
Name,Phone,Website,Area,Address,City,Pincode,India,Image,Category,About
Name,Phone,Website,Area,Address,City,Pincode,India,Image,Category,About
Name,Phone,Website,Area,Address,City,Pincode,India,Image,Category,About
Name,Phone,Website,Area,Address,City,Pincode,India,Image,Category,About
Schoolpage Tutorials                  ,N/A,N/A,Adipur,Ahmedabad 382345,Ahmedabad,India, 382345,,"Chemistry, English, Mathematics, Physics, IELTS, Spoken English, TOEFL, French, German, Hindi, Spanish","
	School Page is the outcome of a long quest to combine the latest in pedagogy, through its unique e-Tutoring (STS) methodology, with the best in technology, which makes it available to students from all over the world.While there are large numbers of great teachers available throughout the world, great teaching and great tutoring are very different in many ways and require very different approaches. There are also many differences between classroom teaching and off-school tutoring methodologies. With this in mind, the SchoolPage team worked with other global academics to create the unique SchoolPage e-Tutoring System (the STS), which is based on Richard E. Mayer’s ‘Cognitive Theory of Multimedia Learning’. The STS is a highly structured academic system. Through the use of a 9-stage lesson organizational structure, STS is used in every SchoolPage session ensuring better engagement, superior retention and rapid results. STS includes the use of cognitive tools such as Mind Mapping, self-diagnosis tools such as Comfort Boxes, and Learning Outcomes that are highly student centric.
	    "
Major Kalshi Classes Pvt. Ltd.                  ,N/A,N/A,Allahabad City,"105/244, Tagore Town
Near Colonelganj Inter College, Allahabad 211001
INDIA",Allahabad,India, 211001,,"Defence Exams, NDA, Police Department Exam, SSB Exam, SSC Exams, UGC Exams, UPSC Exam","
	The Major Kalshi Classes Pvt. Ltd is one of the best Defence training coaching in India which provides the rigorous training for defence services aspirant.Its working for SSB interviews training with the proper guidance of best psychologist team of India. The Major Kalshi Classes Pvt. Ltd provides the talented faculties of UPSC syllabus. This academy provides the separate faculties for all parts of G.S (HISTORY, POL SCIENCE, GEOGRAPHY, CURRENT ISSUE, SCIENCE & TECHNOLOGY, and INTERNATIONAL RELATIONS), MATHEMATICS, PHYSICS, CHEMISTRY, and ENGLISH. Major Kalshi Classes Pvt. Ltd provides regular group discussion classes for G.S & INTERVIEW SKILL development. The Major Kalshi Classes Pvt. Ltd provides training especially for DEFENCE & AIR FORCE (NDA, CDS, ACC, AFCAT & CPF). The Major Kalshi Classes Pvt. Ltd provides eloquent study material prepared by talented faculties of UPSC syllabus. Only Major Kalshi Classes Pvt. Ltd provides assignments for aspirants to rigorous practice of UPSC syllabus."
Rd International                  ,N/A,N/A,Indiranagar,#2151 First Floor 17th Main. HAL II Stage. Indiranagar. Opposite To BESCOM Office Bangalore 560008.,Bangalore,India, 560008,,"Study in USA, IELTS, Study in Germany, GRE, Study in New Zealand","
	Why to take IELTS test prep from RD International?

	 

	•           More than 50 hours of comprehensive program for IELTS test preparation

	•           Exclusive Comprehensive Study Material.

	•           Additional Homework assistance to supplement the classwork instruction.

	•           Extensive practice worksheets to supplement classroom instruction.

	•           Test taking tips and strategies for getting high scores.

	•           Experienced faculty with years of experience in this field.

	 

	•           Assistance for Admissions for Study Abroad & Visa assistance."
Dauto Engineering Private Limited                  ,N/A,N/A,Kasturba Nagar,"B-56, Authorized Catia Training Center, 1st Floor, Kasturba Nagar, In Front Of Chetak Bridge, Bhopal, 462023",Bhopal,India, 462023,,"Civil, Computer, Drawing, Mechanical, Production","
	Competition is getting high in today’s world, expectations of customers increasing where they require quality in quantity but at reasonable cost. It is a challenging task to maintain profitability of operations. DAuto is an ISO 9001-2008 certified engineering services provider firm and has determination to improve the high-value added services which has been delivering constantly. To introduce the superior products at reduced costs that too with shorter lead times is a continuous challenge, face by the product design and development companies worldwide. DAuto, with the experience of decades, provide solution for the product design and development. Making the product feasible comprehensible to the manufacturing industry, understanding the traditional and evolving needs of the global organization is the recipe of high FTR (first time right) ratio of DAuto."
