Name,Phone,Website,Area,Address,City,Pincode,India,Image,Category,About
Schoolpage Tutorials                  ,N/A,N/A,Adil Nagar,"Lucknow 
226001",Delhi, 226001,India,https://www.myprivatetutor.com/userfiles/centers/center1427455408.jpg,"Chemistry, English, Mathematics, Physics, IELTS, Spoken English, TOEFL, French, German, Hindi, Spanish","
	School Page Lucknow is the outcome of a long quest to combine the latest in pedagogy, through its unique e-Tutoring (STS) methodology, with the best in technology, which makes it available to students from all over the world. While there are large numbers of great teachers available throughout the world, great teaching and great tutoring are very different in many ways and require very different approaches. There are many differences between classroom teaching and off-school tutoring methodologies. With this in mind, the School Page team worked with other global academics to create the unique School Page e-Tutoring System (the STS), which is based on Richard E. Mayers Cognitive Theory of Multimedia learning. "
Singh's Classes                  ,N/A,N/A,Gomtinagar,"D-4/251, Vishal Khand, Gomtinagar, Near Cms Phase 1, Lucknow, 226010",Delhi, 226010,India,https://www.myprivatetutor.com/userfiles/centers/center147332383616716.jpg,"Mental Maths, CA - CPT, CS - Executive, CS - Foundation, CS Professional, Accountancy, Algebra, Chemistry, Commerce Subjects, Costing, Economics, Mathematics, Physics, Statistics, All Subjects, NSTSE, NTSE, B.Ed Tuition, Law Entrance, NIOS",we teachs our student by well manner and well frankely .. there is no any issues that my student not satisfied by any classes. 
Hashmi Tutorial                  ,N/A,N/A,Khurram Nagar,529A/131 Sant Kabir Lane Khurram Nagari Lucknow,Delhi, 226022,India,,"Chemistry, Mathematics, Physics",529A/131 Sant Kabir Lane Khurram Nagari Lucknow
Rr World Of Music                  ,N/A,N/A,Aliganj,"2nd Floor, Hall No. 3, Surya Palace, Ring Road, Munshi Pulia, Indira Nagar, Lucknow, 226016",Delhi, 226016,India,,"Fair & Exhibitions, Musical & Dance Programs, Performance & Shows, Spring Camps, Summer Camps, Training Programs, Winter Camps, Drums, Flute, Guitar, Indian Classical Music, Instrumental, Keyboard, Modern Songs, Piano, Singing, Western Classical Music","
	RR Studio: As we believe, we are devoted to educate, train and develop the people to excel in Music as a career, and we try to provide the right platform with the right media to help us grow better as Musicians. Well, here is a special announcement for all the Bands and Musicians, amateurs or professionals !! Unlike old times, there is a place for you guys to crank up while experimenting and working on your sound. RR World of Music presents a Professional Rehearsal studio, where you can create your music in a unique way, with a distinct sound. We help you in making a unique sound for you and your band, apart from the Professional equipment and Sound Systems. Our service makes sure that all the requirements of a musician and the band are taken care of. Not only the jamming space, but we also provide good space to arrange acoustics and compositions. Besides, if you are an amateur, also get a chance to know about some important tips and tricks of ""The Stage"" from the professionals around. So no more of neighbors threatening you, to call the cops when you MAKE SOME NOISE !!!"
Brilliance Tutorials                  ,N/A,N/A,Gomtinagar,1/225 Virat Khand Gomtinagar Lucknow,Delhi, 226010,India,,Mathematics,"
	Brilliance Tutorials is situated in the city of Lucknow. We are catering in the field of education form ages. We provide not only quality education but also individual attention is given when needed."
Palsh Chemistry                  ,N/A,N/A,Gomti Nagar,"3/243, Vishwas Khand, Gonti Nagar, Lko",Delhi, 226010,India,,Chemistry,"3/243, Vishwas Khand, Gonti Nagar, Lko"
Shubhangi Classes                  ,N/A,N/A,Chinhat Tiraha,"Shop No. 2, Dayal Residency Gate, Near BBD, Faizabad Road, Lucknow",Delhi, 227105,India,,"Chemistry, Mathematics, Physics, All Subjects, English, Geography","
	Shubhangi Classes are helping students to build a strong knowledge base for the students for a long time. We have all the resources ready to serve the students for their best results."
Opulent School Of Acting And Fine Arts.                  ,N/A,N/A,Aliganj,"B-1/25 Sector-a Kapoorthala Aliganj, Kapoorthala Lucknow.",Delhi, 226024,India,https://www.myprivatetutor.com/userfiles/centers/center146728367916309.png,"Fair & Exhibitions, Musical & Dance Programs, Performance & Shows, Spring Camps, Summer Camps, Training Programs, Winter Camps, Workshops & Seminars, Acting & Drama, Film Making, Photography",ABOUT US
Sap Training                  ,N/A,N/A,Lalbagh,"02 Gf Burlington Square Burlington Crossing Opp Ocr Building V.s Marg, Lucknow, Uttar Pradesh, 226001",Delhi, 226001,India,,"ERP Training, SAP Training","
	Sap Training has been established with the sole objective to dedicate itself for quality service in SAP Sector. We share our experiences in the SAP department what we had experience in the industry. That will be an example for the candidates to remember about the SAP topics."
A L S Training Institute                  ,N/A,N/A,Hazratganj,"5A, CD Block, 1st Floor, Dilippur Tower, Sapru Marg, Hazratganj, Lucknow",Delhi, 226001,India,,"MBA Entrance, Management Subjects","

		H.R Practical Training is provided according to the current industry needs. 

		ISO Certified institute. 

		All 85 H.R Topic Practically Covered. 

		100% Job Assistance. 

		Live Interview Sessions. 

		Practical Lab Sessions. 

		Life Time Guidance. 

		Life Time Membership.
"
Sap Training Institute                  ,N/A,N/A,Hazratganj,"Als Training Institute
Hazratganj,
Lucknow. 226022",Delhi, 226001,India,,"Microsoft Certification, SAP Certification","

		Excellent Faculty 

		Shortcuts & Time-saving Techniques 

		Small Batch Size 

		Personal Attention 

		Regular Doubt Sessions
"
Koshika Foreign Languages Academy                  ,N/A,N/A,Hazratganj,"Shop No.-4, Ist Floor, R S Plaza, Hazratganj, Lucknow",Delhi, 226001,India,https://www.myprivatetutor.com/userfiles/centers/center1458906163.png,"German, Spanish, French, Chinese","

		Learn and get from the experts 

		Free demo class before join 

		Learn anytime anywhere 

		Basic to advance : Koshika Foreign Languages Academy teach everything
"
Als Sap Training Institute                  ,N/A,N/A,Khurram Nagar,"2nd Floor AM Tower, Khurram Nagar Chauraha, Ring Road, Lucknow",Delhi, 226022,India,,"Management Subjects, BBA Entrance, BBA Subjects","
	ALS STAFFING, was established in 2007. One step solution provider for Human Capital needs and Management. We are more than an organization, we are a movement. Join us and change the world. Over the year, ALS has evolved into integrated human resource services with a commitment to provide people and people related services, and enhance net worth of the human capital of the organizations. An ISO 9001:2008 Certified HR Practical Training Program. ALS Training Institute presents a program which is modern, practical and industry-focused. Our training program will help you understand the concept of Practical HR Management. We will constantly improve your personality and capabilities."
Rshr Services                  ,N/A,N/A,Hazratganj,AB 7 1st Floor Dilippur Tower Sapru Marg Hazaratganj .,Delhi, 226001,India,https://www.myprivatetutor.com/userfiles/centers/center146424618315602.jpg,Management Subjects,"

		Customized Solution 

		Personal Attention 

		Small Batch Size 

		Audio Recording Sessions 

		Video Recording Sessions 

		Result Oriented Workshops
"
Smart Engineers Hub                  ,N/A,N/A,Daliganj,"AMIE Lucknow Campus,
 Near Residency, 
Daliganj, 
Lucknow, Uttar Pradesh",Delhi, 226020,India,,"AIEEE, AMIE","

		Highly dedicated and well qualified team of instructor. 

		Small batch. 

		Affordable fee structure. 
"
Als Sap Training Institute                  ,N/A,N/A,Khurram Nagar,"Als Training Institute
2nd Floor Am Tower,	
Khurram Nagar Chauraha,
Ring Road",Delhi, 226022,India,,"BBA Entrance, BBA Subjects, Management Subjects","
	We include all the topics in the SAP HR course, some of the major topics are: 


		SAP Utilities Time Management and Constraints 

		Cost Management Features of Payroll 

		Personnel Development 

		Recruitment 

		Pay Scale Structure 

		Configuring salary and wages 

		Business Management 

		Audit Reports 
"
Als Training Institute                  ,N/A,N/A,Khurram Nagar,"ALS Training Institute,
A.M. Tower, 2nd Floor,
Ring Road,
Khurram Nagar,
Lucknow - 226022",Delhi, 226022,India,,Management Subjects,"ALS Training Institute,
A.M. Tower, 2nd Floor,
Ring Road,
Khurram Nagar,
Lucknow - 226022"
Aliartis Institute                  ,N/A,N/A,Gorakhpur,"325- Haji Khadim Hussain Compound, Tiwaripur, Gorakhpur",Delhi, 273001,India,https://www.myprivatetutor.com/userfiles/centers/center1455538027.png,"Biology, Chemistry, Mathematics, Physics, AIEEE, IIT JEE Mains, AIPMT, Medical Entrance Exams, NEET",Only SAT coaching in Gorakhpur
Super Mind Classes                  ,N/A,N/A,Chinhat Tiraha,"633/64 Moneshwar Plaza, Chinhat Tiraha, Faizabad Road, Lucknow",Delhi, 226028,India,,"Chemistry, Computer Science, Mathematics, Physics, NTSE, AIEEE, BITSAT, IIT JEE Mains, Polytechnic Entrance, Civil, Electrical, Electronics, Mechanical","

		Experienced and qualified faculty 

		Interactive approach to teaching 

		Flexible Timings 

		Affordable Fees 
"
Nodnat Study Abroad                  ,N/A,N/A,Hazratganj,"2nd Floor Taj Plaza, 3-Way Road, Madan Mohan Malviya Marg",Delhi, 226001,India,https://www.myprivatetutor.com/userfiles/centers/center1454148060.jpg,"Bank PO, GRE, IELTS, SAT, TOEFL, PSAT","
	Established in 2004, Nodnat Educational Services has been providing specialized services in the field of International Education. We are among the best study abroad consultants in India and offer free online counseling services to students seeking admissions in foreign universities. "
Shree Maa Edu Hub                  ,N/A,N/A,Ashiyana,"Lda Colony, Ashiana, 
Lucknow 
226012",Delhi, 226012,India,,"All Subjects, Mathematics, NTSE, Olympiad Exam Preparation, Algebra, English, Political Science","
	Shree MAA Edu Hub provides excellent classes for students from Class IX - XII (all subjects). We are based in the city of Lucknow specializing in language related topics."
Deep Infotech                  ,N/A,N/A,Nirala Nagar,497/97 Nai Basti Babu Ganj Nirala Nagar,Delhi, 226020,India,https://www.myprivatetutor.com/userfiles/centers/center1453739157.png,"Computer, IT, .Net, C, C++, C# (C Sharp), Java and J2EE, AJAX Training, Digital Marketing, PHP and MySQL, Wordpress Training, Advanced Excel, Basic Computer, Computer for official job, MS Office","
	Our vision is to be a Premier Company in IT services in the world. To achieve this , we try to commit focus towards customers requirements. Deliver economical , efficient, and competent services. To provide services and designing at affordable prices

	Our Mission is to find solutions that fit your needs and to be world's preferred location based service providing company.


		Android

		Java

		Advance Java

		PHP

		Asp.Net

		SQL Server 

		Oracle

		SAS

		C

		C++
"
Diksha Educational Services                  ,N/A,N/A,Gomti Nagar,"Gomti Nagar, 
Lucknow 226010",Delhi, 226010,India,,"Communicative English, English, Mathematics, Science, All Subjects, Physics","Benefits:
Easy registration & exit process
Demo classes facility
Customize timing.
Periodic Progress update system
All Subjects/All boards/Any class/Standard
Hobby classes such Music,Dance,Art etc  facility available
Two way communication progress update system
Option to choose gender of professional."
Recoup Solutions Private Limited                  ,N/A,N/A,Rajajipuram,E Block Rajajipuram Near Tempo Stand Mohan Bhaog Chauraha,Delhi, 226017,India,,"Computer Science, IT, Android Training, Java and J2EE, PHP and MySQL, Programming Language, Leadership Skills, Project Management, Tally ERP 9, BPO Training, Computer Hardware, Software Engineering","
	Our aim is to give the trending, effective and professional training along with career consultancy. We hire only Professional Software Engineer and focus on real experience or project driven teaching.We'll even make you prepare for Job Interviews by conducting mock interview tests at the end of each training session at no extra cost. The sole purpose of such session is to make you familiar of things that you have to face in near future. Once you become familiar of things, you can be sure that no one can stop you securing a job at a reputed offshore IT firm."
Techguru Classes                  ,N/A,N/A,Sarai Sahjadi,"Sarai Sahjadi, Kati Bagiya, Banthara Bazaar (Near Mahatma Gandhi Institute Of Pharmacy)",Delhi, 226401,India,https://www.myprivatetutor.com/userfiles/centers/center1445844955.jpg,"AIPMT, GATE Exam, IAS Preparation, IES Exam, IIT JEE Mains, NET","
	Our sole area of focus is competitive examinations coaching. We are a devoted team of professionals who work tirelessly to enable the students to qualify in the exams like UGC NET, JEE, IES, GATE etc. Our programmes has benefited the students immensely. Our experienced teachers will provide you an all round preparation."
Vikas Music And Rock Guitar Academy                  ,N/A,N/A,Faizabad,Faizabad Road,Delhi, 226007,India,https://www.myprivatetutor.com/userfiles/centers/center1444365038.jpg,"Guitar, Acting & Drama, Career Counselling","Learn singing in Indian classical, semiclassical, light music with Khyal, Dhrupad, Dhamar, Thumri, Tarana, Gazal, Bhajan, Bollywood songs and Western music with Carol, Hyms, Gospel etc. Keyboard and Piano classes are conducted with staff notation, Indian notation, play with both hands technique, play western composition like Mozart, Beethoven by your own hand. Guitar classes are also offered by expert trainers."
Clat Possible                  ,N/A,N/A,Civil Lines,"25 B Ashok Marg,
Axis Bank Building,
Sikanderabagh Chauraha",Delhi, 560052,India,https://www.myprivatetutor.com/userfiles/centers/center1440223105.jpg,"Law Entrance, Judicial Services","What began as a humble experiment has become in half a decade, a raging pan-India phenomenon. From having 40% of the top 10 in CLAT to having a whopping 15% of the top 100 in CLAT, new benchmarks at CLAT Possible are basically just our own benchmarks. We have have already started spreading the success across the nation, so that the dream envisioned some time back can finally be fulfilled to the hilt."
Avadh Tutorials India                  ,N/A,N/A,Gomti Nagar,"84, Charbagh, Near Baba Hotel, Lucknow 226004",Delhi, 226004,India,,"All Subjects, Biology, Chemistry, Computer, English, EVS, Geography, Hindi, History, Language, Mathematics, Physics, Science, Accountancy, Algebra, Arts Group, Botany, Business Maths, Business Organisation, Business Studies, Commerce Subjects, Computer Science, Costing, Economics, Education, Home Sc... More [+]",Avadh Tutorials India is a reputed institute based in the city of Lucknow specializing in school and college level subjects. We are providing one of the finest faculties and well designed classes to bring out the students potential to the fore.
